id,title,cashback_percent,category,category_id,region,region_id,address,phone,website,image_url,body_html
1975,Maestro School,5,Təhsil və kitab mağazaları,1654,Bakı,1644,"Mərkəzi Bulvar küç., 4, Bakı, Azərbaycan",+994513002233,https://www.instagram.com/maestroschool.az/,https://api.xalqbank.az/resized/fit52x52/center/temp/processing/maestro-90x90.jpg,"<p>Mərkəzi Bulvar küç., 4, Bakı, Azərbaycan</p> <p>Tel: +994513002233</p> <p><a href=""https://www.instagram.com/maestroschool.az/"">Ətraflı burada</a></p>"
244,Concept Anti Cafe,40,Kafe və restoran,1650,Bakı,1644,Concept Bohem:İstiqlaliyyət küç.41,+994518323113,https://www.instagram.com/conceptbaku/,https://api.xalqbank.az/resized/fit52x52/center/pages/244/concept-logo.jpg,"<p>Concept Bohem:İstiqlaliyyət küç.41</p> <p>Concept Vintage: Qoqol küç.28</p> <p>Concept Estet: Rəsul Rza küç.15</p> <p>Concept Cozy: C.Cabbarlı küç.18</p> <p>Tel: +994518323113</p> <p><a href=""https://www.instagram.com/conceptbaku/""><span><span><span>Ətraflı burada</span></span></span></a></p>"
246,TWINSET,7,Geyim və aksesuarlar,1649,Bakı,1644,"Port Baku Mall, 2-ci mərtəbə",+994554505613,https://instagram.com/twinset.azerbaijan?igshid=YmMyMTA2M2Y=,https://api.xalqbank.az/resized/fit52x52/center/pages/246/twinset.jpg,"<p>Port Baku Mall, 2-ci mərtəbə</p> <p>Tel: +994554505613</p> <p><a href=""https://instagram.com/twinset.azerbaijan?igshid=YmMyMTA2M2Y="">Ətrafli burada</a></p>"
248,B&G Store,7,Geyim və aksesuarlar,1649,Bakı,1644,"Bakı şəh., Səbail ray., Neftçilər prospekti 26a, Dəniz Mall",+994502912109,https://www.instagram.com/bgstoreazerbaijan/,https://api.xalqbank.az/resized/fit52x52/center/pages/248/b-g.jpg,"<p>Bakı şəh., Səbail ray., Neftçilər prospekti 26a, Dəniz Mall</p> <p>Tel: +994502912109</p> <p><a href=""https://www.instagram.com/bgstoreazerbaijan/""><span><span><span>Ətraflı burada</span></span></span></a></p>"
243,Tudors,10,Geyim və aksesuarlar,1649,,,www.tudors.az,+994502243550,https://instagram.com/tudors.azerbaijan?igshid=YmMyMTA2M2Y=,https://api.xalqbank.az/resized/fit52x52/center/pages/243/tudors.jpg,"<p>www.tudors.az</p> <p>M.Rəsulzadə küç.8</p> <p>Tel: +994502243550</p> <p><a href=""https://instagram.com/tudors.azerbaijan?igshid=YmMyMTA2M2Y="">Ətrafli burada</a></p>"
250,AZIZI Coffee & Mocktail,5,Kofe,1664,Bakı,1644,"Bakı şəh., Yasamal ray., İnşaatçılar prospekti 5",+994776338868,https://www.instagram.com/azizicoffeemocktail/,https://api.xalqbank.az/resized/fit52x52/center/pages/250/azizi.png,"<p>Bakı şəh., Yasamal ray., İnşaatçılar prospekti 5</p> <p>Tel: +994776338868</p> <p><a href=""https://www.instagram.com/azizicoffeemocktail/""><span><span><span>Ətraflı burada</span></span></span></a></p>"
251,Panda Bubble Tea,10,Kafe və restoran,1650,Bakı,1644,"Bakı şəh.,Hacı Zeynalabdin Tağıyev küç 16,",+994776124232,https://www.instagram.com/pandabubbletea_baku/,https://api.xalqbank.az/resized/fit52x52/center/pages/251/pbt-logo-01.jpg,"<p>Bakı şəh.,Hacı Zeynalabdin Tağıyev küç 16,</p> <p>Tel: +994776124232</p> <p><a href=""https://www.instagram.com/pandabubbletea_baku/""><span><span><span>Ətraflı burada</span></span></span></a></p>"
1318,Caribbean Pub & Restaurant,10,Kafe və restoran,1650,Bakı,1644,"Bakı şəh., Məmməd Əfəndiyev küç.,7",+994708808512,https://www.instagram.com/caribbeanpub_restaurant/,https://api.xalqbank.az/resized/fit52x52/center/temp/processing/carib-346x346px.png,"<p>Bakı şəh., Məmməd Əfəndiyev küç.,7</p> <p>Tel: +994708808512</p> <p><a href=""https://www.instagram.com/caribbeanpub_restaurant/"">Ətraflı burada</a></p>"
1420,Morex kargo,5,Çatdırılma xidməti,1656,Bakı,1644,Nəsimi rayonu Nizami küçəsi 184F (Çin səfirliyinin arxası)&nbsp;,+994123108788,https://www.instagram.com/morex.az/,https://api.xalqbank.az/resized/fit52x52/center/temp/processing/morex-0.jpg,"<p>Nəsimi rayonu Nizami küçəsi 184F (Çin səfirliyinin arxası)&nbsp;</p> <p>Tel:+994123108788</p> <p><a href=""https://www.instagram.com/morex.az/"">Ətraflı burada</a></p>"
1435,Dolce Vita Mevi,5,Qida və içkilər,1659,Bakı,1644,"Bakı şəh., Xaqani küçəsi 22",0124800624; 0703288828,https://www.instagram.com/dolcevita.az/?hl=en,https://api.xalqbank.az/resized/fit52x52/center/temp/processing/dolce-vita.jpg,"<p>Bakı şəh., Xaqani küçəsi 22</p> <p>Tel: 0124800624<br /> 0703288828</p> <p><a href=""https://www.instagram.com/dolcevita.az/?hl=en"">Ətraflı burada</a></p>"
1438,Natural Aptek,4,Səhiyyə xidməti və aptek,1662,Bakı,1644,"Bakı şəhəri, Xətai rayonu, Sadiqcan küçəsi 14 (Xətai Rayon Polis idarəsinin yanı)",+994558003073; +994508003073,https://www.instagram.com/naturalaptek/,https://api.xalqbank.az/resized/fit52x52/center/temp/processing/naturalaptek.jpg,"<p>Bakı şəhəri, Xətai rayonu, Sadiqcan küçəsi 14 (Xətai Rayon Polis idarəsinin yanı)</p> <p>Tel: +994558003073<br /> +994508003073</p> <p><a href=""https://www.instagram.com/naturalaptek/"">Ətraflı burada</a></p>"
1502,Loccitane,3,Ətir və kosmetika,1657,Bakı,1644,,,https://instagram.com/loccitane_aze?igshid=YmMyMTA2M2Y=,https://api.xalqbank.az/resized/fit52x52/center/temp/processing/loccitane-900x900px-0.jpg,"<p><a href=""https://instagram.com/loccitane_aze?igshid=YmMyMTA2M2Y="">Ətraflı burada</a></p>"
1504,Bakı Optika,10,Səhiyyə xidməti və aptek,1662,Bakı,1644,"Bakı şəh., Mirzəağa Əliyev&nbsp;küç.,138&nbsp;",+994557694284; +994505746787,https://instagram.com/bakioptika?igshid=YmMyMTA2M2Y=,https://api.xalqbank.az/resized/fit52x52/center/temp/processing/bakioptik-900x900px.jpg,"<p>Bakı şəh., Mirzəağa Əliyev&nbsp;küç.,138&nbsp;</p> <p>Tel: +994557694284<br /> +994505746787</p> <p><a href=""https://instagram.com/bakioptika?igshid=YmMyMTA2M2Y="">Ətraflı burada</a></p>"
1505,Alma Bağı,5,Turizm və hotellər,1660,,,"Quba ray., Qəçrəş yolu",+994502540501; +994502540511,https://instagram.com/almabagihotelandvillas?igshid=YmMyMTA2M2Y=,https://api.xalqbank.az/resized/fit52x52/center/temp/processing/albagi-900x900px.jpg,"<p>Quba ray., Qəçrəş yolu</p> <p>Tel: +994502540501</p> <p>+994502540511</p> <p><a href=""https://instagram.com/almabagihotelandvillas?igshid=YmMyMTA2M2Y="">Ətraflı burada</a></p>"
1507,Teamood,10,Kafe və restoran,1650,Şəki,2195,"Şəki, Məmmədəmin Rəsulzadə prospekti,&nbsp;",+994552445656,https://instagram.com/teamoodcafe?igshid=YmMyMTA2M2Y=,https://api.xalqbank.az/resized/fit52x52/center/temp/processing/teamood-900x900px.jpg,"<p>Şəki, Məmmədəmin Rəsulzadə prospekti,&nbsp;</p> <p>Tel: +994552445656</p> <p><a href=""https://instagram.com/teamoodcafe?igshid=YmMyMTA2M2Y="">Ətraflı burada</a></p>"
1523,Lalələr Butik,20,Gül və hədiyyələr,1658,Bakı,1644,"Azərbaycan,Bakı, &nbsp;Rəşid Behbudov mahnı teatrının yanı",+994706353344; +994124935129,https://www.instagram.com/laleler_flower_boutique/,https://api.xalqbank.az/resized/fit52x52/center/temp/processing/12.jpg,"<p>Azərbaycan,Bakı, &nbsp;Rəşid Behbudov mahnı teatrının yanı</p> <p>Tel: &nbsp;+994706353344<br /> +994124935129</p> <p><a href=""https://www.instagram.com/laleler_flower_boutique/"">Ətraflı burada</a></p>"
1524,Jalal Tədris Kursu,10,Təhsil və kitab mağazaları,1654,Bakı,1644,"Bakı, &nbsp;28 May m., D.Əliyeva",055-330-40-00; 012-599-02-46,https://www.instagram.com/jalali_tedris_merkezi_/,https://api.xalqbank.az/resized/fit52x52/center/temp/processing/28.jpg,"<p>Bakı, &nbsp;28 May m., D.Əliyeva</p> <p>Tel: &nbsp;055-330-40-00, 012-599-02-46</p> <p><a href=""https://www.instagram.com/jalali_tedris_merkezi_/"">Ətraflı burada</a></p>"
1525,PASSAGE HOSPİTALİTY,5,Turizm və hotellər,1660,Bakı,1644,"Bakı,Nizami Street 53B, Baku AZ1001",+9940124971465; +994554040051,https://www.facebook.com/passagehotelbaku/,https://api.xalqbank.az/resized/fit52x52/center/temp/processing/14.jpg,"<p>Bakı,Nizami Street 53B, Baku AZ1001</p> <p>Tel: &nbsp;+9940124971465 &nbsp;</p> <p>+994554040051</p> <p><a href=""https://www.facebook.com/passagehotelbaku/"">Ətraflı burada</a></p>"
1527,Doggie Couture,4,Ev heyvanları,1815,Bakı,1644,"Bakı, ​Süleyman Rəhimov küçəsi, 187​, 1-ci mərtəbə",+994502409001,https://www.instagram.com/doggie_couture/?hl=en,https://api.xalqbank.az/resized/fit52x52/center/temp/processing/06.jpg,"<p>Bakı, ​Süleyman Rəhimov küçəsi, 187​, 1-ci mərtəbə</p> <p>Tel: &nbsp;+994502409001</p> <p><a href=""https://www.instagram.com/doggie_couture/?hl=en"">Ətraflı burada</a></p>"
1528,Ruma Qala,10,Turizm və hotellər,1660,Şəki,2195,"Azərbaycan,Şəki, Mirze Feteli Axundov St. 34, 5500",+994502718371,https://www.instagram.com/qalahotel_shaki/?hl=en,https://api.xalqbank.az/resized/fit52x52/center/temp/processing/15.jpg,"<p>Azərbaycan,Şəki, Mirze Feteli Axundov St. 34, 5500</p> <p>Tel: &nbsp;&nbsp;+994502718371</p> <p><a href=""https://www.instagram.com/qalahotel_shaki/?hl=en"">Ətraflı burada</a></p>"
1529,ZəmZəm Hotel,10,Turizm və hotellər,1660,,,"Qusar,H.Əliyev 198",+994775000047,https://www.instagram.com/qusar_zamzam_family_hotel/,https://api.xalqbank.az/resized/fit52x52/center/temp/processing/01.jpg,"<p>Qusar,H.Əliyev 198</p> <p>Tel: &nbsp;&nbsp;+994775000047</p> <p><a href=""https://www.instagram.com/qusar_zamzam_family_hotel/"">Ətraflı burada</a></p>"
1530,Ağ Qaya,10,Kafe və restoran,1650,Şəki,2195,"Şəki şəh., Qoxmuq-Oxud yolu",+994775000047,https://www.instagram.com/ag_qaya_restoran/?hl=en,https://api.xalqbank.az/resized/fit52x52/center/temp/processing/02.jpg,"<p>Şəki şəh., Qoxmuq-Oxud yolu</p> <p>Tel: &nbsp;&nbsp;+994775000047</p> <p><a href=""https://www.instagram.com/ag_qaya_restoran/?hl=en"">Ətraflı burada</a></p>"
1531,AZBAYRAQ,5,Digər,1661,Bakı,1644,"Bakı şəh., Yasamal ray., İnşaatçılar prospekti 28a",+994515157777,https://www.instagram.com/bayraq.az.official/?hl=en,https://api.xalqbank.az/resized/fit52x52/center/temp/processing/03.jpg,"<p>Bakı şəh., Yasamal ray., İnşaatçılar prospekti 28a</p> <p>Tel: &nbsp;+994515157777</p> <p><a href=""https://www.instagram.com/bayraq.az.official/?hl=en"">Ətraflı burada</a></p>"
1532,Frans Salon,10,Gözəllik və sağlamlıq,1651,Bakı,1644,"Bakı,Nərimanov ray, Ceyhun Hacıbəyli 133",+9940556900044; +994555995050,https://www.instagram.com/franssalon_baku/?hl=en,https://api.xalqbank.az/resized/fit52x52/center/temp/processing/08.jpg,"<p>Bakı,Nərimanov ray, Ceyhun Hacıbəyli 133</p> <p>Tel: &nbsp;+9940556900044 &nbsp;</p> <p>+994555995050</p> <p><a href=""https://www.instagram.com/franssalon_baku/?hl=en"">Ətraflı burada</a></p>"
1534,BİOLAB,10,Səhiyyə xidməti və aptek,1662,Bakı,1644,"Bakı şəh., Yasamal ray., Kazım Kazımzadə 145A",+994125381538; +994503113049; +994554153391,https://www.instagram.com/biolab_tibb_merkezi,https://api.xalqbank.az/resized/fit52x52/center/temp/processing/biolab.jpg,"<p>Bakı şəh., Yasamal ray., Kazım Kazımzadə 145A</p> <p>Tel: &nbsp;+994125381538</p> <p>+994503113049&nbsp;</p> <p>+994554153391</p> <p><a href=""https://www.instagram.com/biolab_tibb_merkezi"">Ətraflı burada</a></p>"
1536,GOLD NAFTALAN,5,Turizm və hotellər,1660,,,"Naftalan şəhəri, Nizami küçəsi 42",+994504500018; +994505722000,https://www.instagram.com/gold_naftalan_official/?hl=en,https://api.xalqbank.az/resized/fit52x52/center/temp/processing/0016.jpg,"<p>Naftalan şəhəri, Nizami küçəsi 42</p> <p>Tel: +994504500018&nbsp; &nbsp;</p> <p>+994505722000</p> <p>+7 (499) 350-2145</p> <p><a href=""https://www.instagram.com/gold_naftalan_official/?hl=en"">Ətraflı burada</a></p>"
1537,Stardent,10,Səhiyyə xidməti və aptek,1662,Bakı,1644,"Bakı,Orucəliyeva küç bina 11 A,həyət 1052",,https://www.instagram.com/stardent.dental/,https://api.xalqbank.az/resized/fit52x52/center/temp/processing/0025.jpg,"<p>Bakı,Orucəliyeva küç bina 11 A,həyət 1052</p> <p>Tel:</p> <p><a href=""https://www.instagram.com/stardent.dental/"">Ətraflı burada</a></p>"
1538,Sushitv,5,Kafe və restoran,1650,Bakı,1644,"Bakı,Orucəliyeva küç bina 11 A,həyət 1052",,https://www.instagram.com/sushitv.official/,https://api.xalqbank.az/resized/fit52x52/center/temp/processing/sushi-tv.png,"<p>Bakı,Orucəliyeva küç bina 11 A,həyət 1052</p> <p>Tel:</p> <p><a href=""https://www.instagram.com/sushitv.official/"">Ətraflı burada</a></p>"
1539,Az Akadem,5,Təhsil və kitab mağazaları,1654,Bakı,1644,"Bakı şəh., Nərimanov ray.,&nbsp;Faiq Yusubov küç., 24",+994125678374; +994552329040; +994503399040,https://l.instagram.com/?u=https%3A%2F%2Finstagram.com%2Ftibb_kursu_%3Figshid%3D179jpbp3emuev&amp;e=ATPr7iGIp2tq0_ZjO5gKHdc5s9PtnmFwQXUFOikjD9D_aKM6uguIIabVsFLBPMjX9mxw_OK6tnlB6VfH&amp;s=1,https://api.xalqbank.az/resized/fit52x52/center/temp/processing/0003.jpg,"<p>Bakı şəh., Nərimanov ray.,&nbsp;Faiq Yusubov küç., 24</p> <p>Tel: +994125678374<br /> +994552329040<br /> +994503399040</p> <p><a href=""https://l.instagram.com/?u=https%3A%2F%2Finstagram.com%2Ftibb_kursu_%3Figshid%3D179jpbp3emuev&amp;e=ATPr7iGIp2tq0_ZjO5gKHdc5s9PtnmFwQXUFOikjD9D_aKM6uguIIabVsFLBPMjX9mxw_OK6tnlB6VfH&amp;s=1"">Ətraflı burada</a></p>"
1540,BİOSİS Tibb Mərkəzi,20,Səhiyyə xidməti və aptek,1662,Bakı,1644,"Bakı şəh., Yasamal ray., Məhəmməd Naxçıvani&nbsp;9",+994125678374; +994552329040; +994503399040,https://www.instagram.com/biosis.tibb.merkezi,https://api.xalqbank.az/resized/fit52x52/center/temp/processing/0006.jpg,"<p>Bakı şəh., Yasamal ray., Məhəmməd Naxçıvani&nbsp;9</p> <p>Tel: +994125678374<br /> +994552329040<br /> +994503399040</p> <p><a href=""https://www.instagram.com/biosis.tibb.merkezi"">Ətraflı burada</a></p>"
1542,Trio Cheff,5,Kafe və restoran,1650,Bakı,1644,"Bakı, Nəsimi r-nu,Mir-Qasımov 2",+994708835383,https://www.instagram.com/triochef.az/,https://api.xalqbank.az/resized/fit52x52/center/temp/processing/0027.jpg,"<p>Bakı, Nəsimi r-nu,Mir-Qasımov 2</p> <p>Tel: +994708835383</p> <p><a href=""https://www.instagram.com/triochef.az/"">Ətraflı burada</a></p>"
1544,BONA VET CLINIC,5,Ev heyvanları,1815,Bakı,1644,"Bakı şəh., Mikayıl Müşfiq küç.,14",+994125101185(86); +994502259229; +994772259229,https://www.instagram.com/bonavetclinic/,https://api.xalqbank.az/resized/fit52x52/center/temp/processing/0007.jpg,"<p>Bakı şəh., Mikayıl Müşfiq küç.,14</p> <p>Tel: +994125101185(86)<br /> +994502259229<br /> +994772259229</p> <p><a href=""https://www.instagram.com/bonavetclinic/"">Ətraflı burada</a></p>"
1545,Ellada Dent House,5,Səhiyyə xidməti və aptek,1662,Bakı,1644,"Bakı, Nəsimi r-nu,A.A.Bakıxanov pr 26A. 1033, 1 ci mərtəbə",+994124907676; +994125951515,https://denthouse.az,https://api.xalqbank.az/resized/fit52x52/center/temp/processing/0014.jpg,"<p>Bakı, Nəsimi r-nu,A.A.Bakıxanov pr 26A. 1033, 1 ci mərtəbə</p> <p>Tel: +994124907676&nbsp;</p> <p>+994125951515</p> <p><a href=""https://denthouse.az"">Ətraflı burada</a></p>"
1550,Princess Girls,3,Geyim və aksesuarlar,1649,Bakı,1644,"Bakı şəh, Ş. Qurbanov (Nizami Mall, 330-cü mağaza)",,https://www.instagram.com/ss__prince_princess/,https://api.xalqbank.az/resized/fit52x52/center/temp/processing/0023.jpg,"<p>Bakı şəh, Ş. Qurbanov (Nizami Mall, 330-cü mağaza)</p> <p><a href=""https://www.instagram.com/ss__prince_princess/"">Ətraflı burada</a></p>"
1551,DREAM DAY,5,Gül və hədiyyələr,1658,Bakı,1644,"Bakı, Əhməd Cavad 15, City Center &nbsp;Mall",+994505968800; +994554111227,https://www.instagram.com/dreamdayevent/?hl=en,https://api.xalqbank.az/resized/fit52x52/center/temp/processing/0013.jpg,"<p>Bakı, Əhməd Cavad 15, City Center &nbsp;Mall</p> <p>Tel: +994505968800</p> <p>+994554111227</p> <p><a href=""https://www.instagram.com/dreamdayevent/?hl=en"">Ətraflı burada</a></p>"
1555,OLİMP GYM,10,İdman və əyləncə,1652,Bakı,1644,"Bakı şəh, Binə qəs",+994124564013; 0006363062,https://www.facebook.com/people/OLYMP-fitnes-GYM-BINE-qes/100063630624888/,https://api.xalqbank.az/resized/fit52x52/center/temp/processing/0022.jpg,"<p>Bakı şəh, Binə qəs</p> <p>Tel: +994124564013, +99451/776004442</p> <p><a href=""https://www.facebook.com/people/OLYMP-fitnes-GYM-BINE-qes/100063630624888/"">Ətraflı burada</a></p>"
1556,DOKTOR-AZ,15,Səhiyyə xidməti və aptek,1662,Sumqayıt,2057,"Sumqayıt şəh,S.Bədəlbəyli 4,məhəllə 43",+994555247839; 994 55 5247839; +99418 6448060,https://www.instagram.com/doktor.az,https://api.xalqbank.az/resized/fit52x52/center/temp/processing/0012.jpg,"<p>Sumqayıt şəh,S.Bədəlbəyli 4,məhəllə 43</p> <p>Tel: +994555247839 + 994 55 5247839<br /> +99418 6448060<br /> +994186423333&nbsp;</p> <p><a href=""https://www.instagram.com/doktor.az"">Ətraflı burada</a></p>"
1568,Autolux Azerbaijan,4,Avtomobil və aksesuarlar,1648,Bakı,1644,Zaur Nudirəliyev küçəsi 8. və Üzeyir Hacıbəyli küçəsi 57,+994124048396,http://www.instagram.com/autolux.azerbaijan,https://api.xalqbank.az/resized/fit52x52/center/temp/processing/xalq-bank-ucun.jpg,"<p><span><span><span style=""color:black"">Zaur Nudirəliyev küçəsi 8. və Üzeyir Hacıbəyli küçəsi 57</span></span></span></p> <p>Tel: +994124048396&nbsp;</p> <p><a href=""http://www.instagram.com/autolux.azerbaijan"">Ətraflı burada</a></p>"
1569,Barber Brothers,5,Gözəllik və sağlamlıq,1651,Bakı,1644,"Bakı şəh., Nəsimi ray., Azadlıq pr., ev 125",+994505291606,https://www.instagram.com/barber.brotherss/?next=%2F ,https://api.xalqbank.az/resized/fit52x52/center/temp/processing/cstudio.jpg,"<p>Bakı şəh., Nəsimi ray., Azadlıq pr., ev 125</p> <p>Tel: +994505291606</p> <p><a href=""https://www.instagram.com/barber.brotherss/?next=%2F "">Ətraflı burada</a></p>"
1570,OLD YARD HOTEL,5,Turizm və hotellər,1660,Bakı,1644,"Bakı şəh, Azadlıq, 16/21",+994516037888; +994124088888; +994124934167,,https://api.xalqbank.az/resized/fit52x52/center/temp/processing/guest-house-old-yard.jpg,"<p>Bakı şəh, Azadlıq, 16/21</p> <p>Tel: +994516037888, +994124088888, +994124934167, +994124935912</p> <p>WhatsApp. +994775312121<br /> WhatsApp +994556697509</p> <p>&nbsp;</p>"
1571,Beer Barrel,5,Kafe və restoran,1650,Bakı,1644,"Bakı şəh., Xətai ray., Xudu Məmmədov 29/42",+994123792223; +994993792223; +994703892223,https://www.instagram.com/beerbarrelpub/?hl=en,https://api.xalqbank.az/resized/fit52x52/center/temp/processing/bb-900px.jpg,"<p>Bakı şəh., Xətai ray., Xudu Məmmədov 29/42</p> <p>Tel: +994123792223<br /> +994993792223<br /> +994703892223</p> <p><a href=""https://www.instagram.com/beerbarrelpub/?hl=en"">Ətraflı burada</a></p>"
1578,OHIO INN,10,Turizm və hotellər,1660,İsmayıllı,2189,"İsmayıllı rayonu,İvanovka, Proxladnaya kuçə",+994552234750,https://www.instagram.com/ohio.inn/,https://api.xalqbank.az/resized/fit52x52/center/temp/processing/ohio-inn.jpg,"<p>İsmayıllı rayonu,İvanovka, Proxladnaya kuçə</p> <p>Tel: +994552234750</p> <p><a href=""https://www.instagram.com/ohio.inn/"">Ətraflı burada</a></p>"
1583,May Vay Boulevard,10,Turizm və hotellər,1660,Gəncə,2190,"Gəncə şəhəri, Əhməd Cəmil 69",+994507280701,https://www.instagram.com/p/CRjLsNjl-LP/,https://api.xalqbank.az/resized/fit52x52/center/temp/processing/myway.jpg,"<p>Gəncə şəhəri, Əhməd Cəmil 69</p> <p>Tel: +994507280701</p> <p><a href=""https://www.instagram.com/p/CRjLsNjl-LP/"">Ətraflı burada</a></p>"
1584,AVIA RISE,3,Turizm və hotellər,1660,Bakı,1644,"Bakı şəh., Heydər Əliyev prospekti,&nbsp;Caspian Sport Plaza",+994512404551,https://www.instagram.com/aviarise?igshid=YmMyMTA2M2Y=,https://api.xalqbank.az/resized/fit52x52/center/temp/processing/avia-rise.jpg,"<p>Bakı şəh., Heydər Əliyev prospekti,&nbsp;Caspian Sport Plaza</p> <p>Tel: +994512404551</p> <p><a href=""https://www.instagram.com/aviarise?igshid=YmMyMTA2M2Y="">Ətraflı burada</a></p>"
1603,Diamond Riverside Qusar,5,Kafe və restoran,1650,Qusar,2191,Heydər Əliyev küç. (Şahdağ yolu) Qusar,+994773383838,https://www.facebook.com/diamondriversidequsar/,https://api.xalqbank.az/resized/fit52x52/center/temp/processing/diamond-900px.jpg,"<p>Heydər Əliyev küç. (Şahdağ yolu) Qusar</p> <p>Tel:+994773383838</p> <p><a href=""https://www.facebook.com/diamondriversidequsar/"">Ətraflı burada</a></p>"
1607,Biryani House,10,Kafe və restoran,1650,Bakı,1644,"Bakı şəh., Səbail ray., Fəvvarələr meydanı 6",+994558227786,https://www.instagram.com/biryani_house_in_tergova/,https://api.xalqbank.az/resized/fit52x52/center/temp/processing/biryani-house.png,"<p>Bakı şəh., Səbail ray., Fəvvarələr meydanı 6</p> <p>Tel:+994558227786</p> <p><a href=""https://www.instagram.com/biryani_house_in_tergova/"">Ətraflı burada</a></p>"
1627,Quba Med Klinikası /Karia Tibb Mərkəzi,5,Səhiyyə xidməti və aptek,1662,Quba,2192,"Quba şəhəri,",+994998800103,https://www.instagram.com/kariamedical,https://api.xalqbank.az/resized/fit52x52/center/temp/processing/karia-tibb-merkezi-quba-med-900px.jpg,"<p>Quba şəhəri,</p> <p>Tel:+994998800103</p> <p><a href=""https://www.instagram.com/kariamedical"">Ətraflı burada</a></p>"
1629,Anatolia Restoranı,5,Kafe və restoran,1650,Lənkəran,2193,"Lənkəran ray., Qala Xiyabanı 11",+994553866016,https://www.instagram.com/anatoliaofficial/,https://api.xalqbank.az/resized/fit52x52/center/temp/processing/anatolia-900px.jpg,"<p>Lənkəran ray., Qala Xiyabanı 11</p> <p>Tel:+994553866016</p> <p><a href=""https://www.instagram.com/anatoliaofficial/"">Ətraflı burada</a></p>"
1630,İconic Beauty House,5,Gözəllik və sağlamlıq,1651,Bakı,1644,"Bakı şəhəri,Xətai rayonu, Qaçaq Nəbi 48A",+994504030039; +994125702675,https://www.instagram.com/iconicbeautyhouse/,https://api.xalqbank.az/resized/fit52x52/center/temp/processing/iconic-900px.jpg,"<p>Bakı şəhəri,Xətai rayonu, Qaçaq Nəbi 48A</p> <p>Tel:+994504030039&nbsp;</p> <p>+994125702675</p> <p><a href=""https://www.instagram.com/iconicbeautyhouse/"">Ətraflı burada</a></p>"
1631,Çinar Kafesi,5,Kafe və restoran,1650,Bakı,1644,"Bakı şəhəri, Binəqədi rayon, Mir Cəlal küçəsi 59 K",+994502871516; +994 70 2871516,https://www.instagram.com/cinar_restoran_perviz_anar/,https://api.xalqbank.az/resized/fit52x52/center/temp/processing/cinar-kafe-900px.jpg,"<p>Bakı şəhəri, Binəqədi rayon, Mir Cəlal küçəsi 59 K</p> <p>Tel:+994502871516&nbsp;</p> <p>+994 70 2871516</p> <p><a href=""https://www.instagram.com/cinar_restoran_perviz_anar/"">Ətraflı burada</a></p>"
1633,REZONANS CLINIC,10,Səhiyyə xidməti və aptek,1662,Bakı,1644,"Bakı şəh., Əhmədli qəs., Ramiz Quliyev küç 4",+994505002656; +994123792656; +99470 3792686,https://www.instagram.com/rezonans_klinika/,https://api.xalqbank.az/resized/fit52x52/center/temp/processing/rezonans-klinik.jpg,"<p>Bakı şəh., Əhmədli qəs., Ramiz Quliyev küç 4</p> <p>Tel:+994505002656</p> <p>+994123792656&nbsp; +99470 3792686</p> <p><a href=""https://www.instagram.com/rezonans_klinika/"">Ətraflı burada</a></p>"
1635,Nur Restoranı,5,Kafe və restoran,1650,Qusar,2191,"Qusar rayonu, Qusar Laza yolu",+994504632600,,https://api.xalqbank.az/resized/fit52x52/center/temp/processing/nur-restorani.jpg,"<p>Qusar rayonu, Qusar Laza yolu</p> <p>Tel:+994504632600</p>"
1666,Dalğa restoran,5,Kafe və restoran,1650,Lənkəran,2193,"Lənkəran şəhəri, Sahil küçəsi",+994775044411; +994505798844,https://instagram.com/dalga.lenkeran?igshid=YmMyMTA2M2Y=,https://api.xalqbank.az/resized/fit52x52/center/temp/processing/dalga-900px.jpg,"<p>Lənkəran şəhəri, Sahil küçəsi</p> <p>Tel:+994775044411</p> <p>+994505798844</p> <p><a href=""https://instagram.com/dalga.lenkeran?igshid=YmMyMTA2M2Y="">Ətraflı burada</a></p>"
1667,Efendi Boutique,5,Geyim və aksesuarlar,1649,Qazax,2198,"Qazax ş, H.Əliyev pr, ev 101",+9940554012550,https://www.instagram.com/boutique_bykhanim/,https://api.xalqbank.az/resized/fit52x52/center/temp/processing/efendi-150-002.jpg,"<p>Qazax ş, H.Əliyev pr, ev 101</p> <p>Tel: +9940554012550</p> <p><a href=""https://www.instagram.com/boutique_bykhanim/"">Ətraflı burada</a></p>"
1669,Memory Uşaq İntellekt Mərkəzi,10,Təhsil və kitab mağazaları,1654,Bakı,1644,"Bakı şəh, Nərimanov &nbsp;rayonu, ​Aşıq Alı küçəsi &nbsp;4b",+994502274455,https://www.instagram.com/memory_ushaq_montessori_merkez/,https://api.xalqbank.az/resized/fit52x52/center/temp/processing/memory-900px.jpg,"<p>Bakı şəh, Nərimanov &nbsp;rayonu, ​Aşıq Alı küçəsi &nbsp;4b</p> <p>Tel: +994502274455</p> <p><a href=""https://www.instagram.com/memory_ushaq_montessori_merkez/"">Ətraflı burada</a></p>"
1670,Amazon Travel,3,Turizm və hotellər,1660,Bakı,1644,Azure Business Center (8 Noyabr pr. 15),+994504006481; 994504006491; 994594006403,https://www.instagram.com/amazontravel.az/,https://api.xalqbank.az/resized/fit52x52/center/temp/processing/amazon-logo-150px.jpg,"<p>Azure Business Center (8 Noyabr pr. 15)</p> <p>Tel: <span><span>+994504006481&nbsp; +</span></span><span><span>994504006491&nbsp; +</span></span><span><span>994594006403&nbsp;&nbsp;</span></span><span><span>+994504006401</span></span></p> <p><a href=""https://www.instagram.com/amazontravel.az/"">Ətraflı burada</a></p>"
1671,Samsung mağazası Gəncə filialı,5,Elektronika və məişət texnikası,1655,Gəncə,2190,"Gəncə, Nizami prospekti, 108",+994519970101,,https://api.xalqbank.az/resized/fit52x52/center/temp/processing/samsung-900.jpg,"<p>Gəncə, Nizami prospekti, 108</p> <p>Tel: +994519970101</p> <p>&nbsp;</p>"
1672,Nika Estetik Klinika,10,Gözəllik və sağlamlıq,1651,Bakı,1644,"Bakı şəhəri, Yasamal rayonu, &nbsp;H.Cavid prospekti 201",+994555391513; +994125391512,https://www.instagram.com/nikaestetik_baku/,https://api.xalqbank.az/resized/fit52x52/center/temp/processing/nika-estetik.jpg,"<p>Bakı şəhəri, Yasamal rayonu, &nbsp;H.Cavid prospekti 201</p> <p>Tel: +994555391513 &nbsp;&nbsp;+994125391512</p> <p><a href=""https://www.instagram.com/nikaestetik_baku/"">Ətraflı burada</a></p>"
1674,Saffron Fast Food Restaurant,5,Kafe və restoran,1650,Bakı,1644,"Bakı şəhəri, Yasamal rayonu, Salatın Əskərova 209, Nizami Mall",+994505439556,https://www.instagram.com/saffron_lahmacun_pide_pizza/,https://api.xalqbank.az/resized/fit52x52/center/temp/processing/saffron-restoran.jpg,"<p>Bakı şəhəri, Yasamal rayonu, Salatın Əskərova 209, Nizami Mall</p> <p>Tel: +994505439556</p> <p><a href=""https://www.instagram.com/saffron_lahmacun_pide_pizza/"">Ətraflı burada</a></p>"
1675,Skandinaviya Evi,5,Ev,1680,Bakı,1644,"Bakı şəhəri, Xətai rayonu, Babək prospekti 10,",+994777165050; +994124641263,https://www.instagram.com/skandinaviya_evi/,https://api.xalqbank.az/resized/fit52x52/center/temp/processing/skandinaviya-evi.jpg,"<p>Bakı şəhəri, Xətai rayonu, Babək prospekti 10,</p> <p>Tel: +994777165050&nbsp; +994124641263</p> <p><a href=""https://www.instagram.com/skandinaviya_evi/"">Ətraflı burada</a></p>"
1677,Lavender Flowers,5,Gül və hədiyyələr,1658,Bakı,1644,"Bakı şəhəri, Sabit Orucov küçəsi 12",+994702688483,https://www.instagram.com/lavenderflowersboutique/?hl=en,https://api.xalqbank.az/resized/fit52x52/center/temp/processing/lavander-flover.jpg,"<p>Bakı şəhəri, Sabit Orucov küçəsi 12</p> <p>Tel: +994702688483</p> <p><a href=""https://www.instagram.com/lavenderflowersboutique/?hl=en"">Ətraflı burada</a></p>"
1679,By Shady,5,Kafe və restoran,1650,Gəncə,2190,"Gəncə şəh., Heydər Əliyev prospekti, Gəncə Mall&nbsp;",+994558362022,https://www.instagram.com/byshadiplus_ganja/,https://api.xalqbank.az/resized/fit52x52/center/temp/processing/by-shadi.jpg,"<p>Gəncə şəh., Heydər Əliyev prospekti, Gəncə Mall&nbsp;</p> <p>Tel: +994558362022</p> <p><a href=""https://www.instagram.com/byshadiplus_ganja/"">Ətraflı burada</a></p>"
1685,LUXE Beauty,5,Gözəllik və sağlamlıq,1651,Bakı,1644,"Bakı şəhəri,Yasamal rayonu,Həsən Məcidov küç 14",+994509641116,https://www.instagram.com/luxe_beauty_yasamal/?hl=en,https://api.xalqbank.az/resized/fit52x52/center/temp/processing/luxe-beauty.jpg,"<p>Bakı şəhəri,Yasamal rayonu,Həsən Məcidov küç 14</p> <p>Tel: +994509641116</p> <p><a href=""https://www.instagram.com/luxe_beauty_yasamal/?hl=en"">Ətraflı burada</a></p>"
1686,Cafe de Paris,4,Kafe və restoran,1650,Gəncə,2190,"Gəncə şəh., Mirzə Abbas Abbaszadə küç.,&nbsp;59",+994504162299,https://www.instagram.com/cafedeparis_gence/,https://api.xalqbank.az/resized/fit52x52/center/temp/processing/cafe-de-paris-gence.jpg,"<p>Gəncə şəh., Mirzə Abbas Abbaszadə küç.,&nbsp;59</p> <p>Tel: +994504162299</p> <p><a href=""https://www.instagram.com/cafedeparis_gence/"">Ətraflı burada</a></p>"
1704,Zenit Kafe,5,Kafe və restoran,1650,Bakı,1644,Bakı şəhəri Yasamal rayonu İslam Səfərli küç 16,+994559820432; +994 55 7272865,https://www.instagram.com/zenitcafebar/,https://api.xalqbank.az/resized/fit52x52/center/temp/processing/zenit-900x900px.jpg,"<p>Bakı şəhəri Yasamal rayonu İslam Səfərli küç 16</p> <p>Tel: +994559820432</p> <p>+994 55 7272865</p> <p><a href=""https://www.instagram.com/zenitcafebar/"">Ətraflı burada</a></p>"
1712,Elab Hədiyyəçi,5,Gül və hədiyyələr,1658,Bakı,1644,"Bakı şəhəri, Xətai rayonu, Həzi Aslanov 113",+994552133028,https://www.instagram.com/elab.hadiyyachi/,https://api.xalqbank.az/resized/fit52x52/center/temp/processing/elab.jpg,"<p>Bakı şəhəri, Xətai rayonu, Həzi Aslanov 113</p> <p>Tel: +994552133028</p> <p><a href=""https://www.instagram.com/elab.hadiyyachi/"">Ətraflı burada</a></p>"
1721,Coffee Market,3,Kofe,1664,Bakı,1644,"Bakı şəhəri, Sabunçu rayonu,&nbsp; Bakı Aerport şossesi 238 A",+994519447999,,https://api.xalqbank.az/resized/fit52x52/center/temp/processing/coffe-market.jpg,"<p>Bakı şəhəri, Sabunçu rayonu,&nbsp; Bakı Aerport şossesi 238 A</p> <p>Tel: +994519447999</p> <p>&nbsp;</p> <p>&nbsp;</p>"
1722,Mirvari Diş Klinikası,5,Səhiyyə xidməti və aptek,1662,Bakı,1644,"Bakı şəhəri, Yasamal rayonu, İsmayılbəy Qutqaşınlı&nbsp; 99",+994125371722; +994553102922,https://www.instagram.com/mirvaridish/,https://api.xalqbank.az/resized/fit52x52/center/temp/processing/mirvari-dis.jpg,"<p>Bakı şəhəri, Yasamal rayonu, İsmayılbəy Qutqaşınlı&nbsp; 99</p> <p>Tel: +994125371722&nbsp;</p> <p>+994553102922</p> <p><a href=""https://www.instagram.com/mirvaridish/"">Ətraflı burada</a></p>"
1724,Elşad Ucuzluq,3,Elektronika və məişət texnikası,1655,Şabran,2194,"Şabran şəhəri, M.Ə.Rəsulzadə küçəsi",+994517600601; +994703261666,https://www.instagram.com/elsad_ucuzluq/?hl=en,https://api.xalqbank.az/resized/fit52x52/center/temp/processing/evim-900px.jpg,"<p>Şabran şəhəri, M.Ə.Rəsulzadə küçəsi</p> <p>Tel: +994517600601&nbsp;</p> <p>+994703261666</p> <p><a href=""https://www.instagram.com/elsad_ucuzluq/?hl=en"">Ətraflı burada</a></p>"
1725,Evim İnşaat,3,Elektronika və məişət texnikası,1655,Şabran,2194,"Şabran şəhəri, M.Ə.Rəsulzadə küçəsi",+994517600601; +994703261666,https://www.instagram.com/evim_insaat_ucuzluq/?hl=en,https://api.xalqbank.az/resized/fit52x52/center/temp/processing/evim-900px-0.jpg,"<p>Şabran şəhəri, M.Ə.Rəsulzadə küçəsi</p> <p>Tel: +994517600601&nbsp;</p> <p>+994703261666</p> <p><a href=""https://www.instagram.com/evim_insaat_ucuzluq/?hl=en"">Ətraflı burada</a></p>"
1726,Taksim Korner,5,Kafe və restoran,1650,,,"Lənkəran şəhəri, Paşa Təhməzov küçəsi,Hezi Aslanov Xiyabani&nbsp; 18",+994517600601; +994703261666,https://www.instagram.com/taksimcorner/,https://api.xalqbank.az/resized/fit52x52/center/temp/processing/taksim-corner.jpg,"<p>Lənkəran şəhəri, Paşa Təhməzov küçəsi,Hezi Aslanov Xiyabani&nbsp; 18</p> <p>Tel: +994517600601&nbsp;</p> <p>+994703261666</p> <p><a href=""https://www.instagram.com/taksimcorner/"">Ətraflı burada</a></p>"
1727,Caspian Veterinar Klinikası,3,Ev heyvanları,1815,Bakı,1644,"Bakı şəhəri,Xəzər rayonu, Mərdəkan qəsəbəsi",+994502996695,https://www.instagram.com/caspianvet/,https://api.xalqbank.az/resized/fit52x52/center/temp/processing/caspian-veterin-zoo-market.jpg,"<p>Bakı şəhəri,Xəzər rayonu, Mərdəkan qəsəbəsi</p> <p>Tel: +994502996695</p> <p><a href=""https://www.instagram.com/caspianvet/"">Ətraflı burada</a></p>"
1728,Zoo Market,3,Ev heyvanları,1815,Bakı,1644,"Bakı şəhəri,Xəzər rayonu, Mərdəkan qəsəbəsi",+994502996695,,https://api.xalqbank.az/resized/fit52x52/center/temp/processing/zoomarket-900x900px.png,"<p>Bakı şəhəri,Xəzər rayonu, Mərdəkan qəsəbəsi</p> <p>Tel: +994502996695</p> <p>&nbsp;</p>"
1730,Summer Qubernator café,5,Kafe və restoran,1650,Bakı,1644,"Bakı şəhəri, Səbail rayonu, Filarminiya bağı&nbsp;",+994504800099; +994124974929,https://www.instagram.com/summer_qubernator_cafe/,https://api.xalqbank.az/resized/fit52x52/center/temp/processing/qubernator-900px.jpg,"<p>Bakı şəhəri, Səbail rayonu, Filarminiya bağı&nbsp;</p> <p>Tel: ++994504800099</p> <p>+994124974929</p> <p><a href=""https://www.instagram.com/summer_qubernator_cafe/"">Ətraflı burada</a></p>"
1744,Dentax Dental Klinika,10,Səhiyyə xidməti və aptek,1662,Sumqayıt,2057,"Sumqayıt şəhəri, 5 mkr,Səməd Vurğun küçəsi&nbsp; 163A",+994553009600; +994186442548,https://www.instagram.com/dentax.dental.clinic/,https://api.xalqbank.az/resized/fit52x52/center/temp/processing/dentax-dental.jpg,"<p>Sumqayıt şəhəri, 5 mkr,Səməd Vurğun küçəsi&nbsp; 163A</p> <p>Tel: +994553009600&nbsp;&nbsp;</p> <p>+994186442548</p> <p><a href=""https://www.instagram.com/dentax.dental.clinic/"">Ətraflı burada</a></p>"
1745,TURAN Restoranı,7,Kafe və restoran,1650,,,"İsmayıllı rayonu, Çingiz Əmrəliyev küçəsi",+994552014633,https://ru.foursquare.com/v/turan-restorani-ismayilli/4f65b338e4b0cded5d9977a7,https://api.xalqbank.az/resized/fit52x52/center/temp/processing/turan-restorani.jpg,"<p>İsmayıllı rayonu, Çingiz Əmrəliyev küçəsi</p> <p>Tel: +994552014633</p> <p><a href=""https://ru.foursquare.com/v/turan-restorani-ismayilli/4f65b338e4b0cded5d9977a7"">Ətraflı burada</a></p>"
1747,Caffino Coffee,4,Kofe,1664,Bakı,1644,"Bakı şəhəri,Səbail rayonu,Səid Rüstəmov küçəsi 17",+994702050309,https://www.instagram.com/cafinocoffee/,https://api.xalqbank.az/resized/fit52x52/center/temp/processing/caffio-coffe.jpg,"<p>Bakı şəhəri,Səbail rayonu,Səid Rüstəmov küçəsi 17</p> <p>Tel: +994702050309</p> <p><a href=""https://www.instagram.com/cafinocoffee/"">Ətraflı burada</a></p>"
1756,Genstom Dental Clinic,5,Səhiyyə xidməti və aptek,1662,Bakı,1644,"Bakı şəhəri,Binəqədi rayonu, Süleyman Sani Axundov küçəsi 18A,",+994553334800; +994125616211,https://www.instagram.com/genstom_dental/,https://api.xalqbank.az/resized/fit52x52/center/temp/processing/genstom-clinic.jpg,"<p>Bakı şəhəri,Binəqədi rayonu, Süleyman Sani Axundov küçəsi 18A,</p> <p>Tel: +994553334800&nbsp;</p> <p>+994125616211</p> <p><a href=""https://www.instagram.com/genstom_dental/"">Ətraflı burada</a></p>"
1758,Baby Land,7,,,,,"Qusar rayonu,F.Musayev küçəsi 73a",+994773456050,https://instagram.com/babyland.qusar?igshid=NTc4MTIwNjQ2YQ==,https://api.xalqbank.az/resized/fit52x52/center/temp/processing/babyland.jpg,"<p>Qusar rayonu,F.Musayev küçəsi 73a</p> <p>Tel: +994773456050</p> <p><a href=""https://instagram.com/babyland.qusar?igshid=NTc4MTIwNjQ2YQ=="">Ətraflı burada</a></p>"
1763,Zəngəzur İstirahət Mərkəz,10,Turizm və hotellər,1660,,,"Qusar rayonu, Çiləgir kəndi,Qusar-Şahdağ şossesi",+994708013838; +994705565655,https://instagram.com/zangazur.hotel.qusar?igshid=MzRlODBiNWFlZA==,https://api.xalqbank.az/resized/fit52x52/center/temp/processing/zengezur-istirahet.png,"<p>Qusar rayonu, Çiləgir kəndi,Qusar-Şahdağ şossesi</p> <p>Tel: +994708013838&nbsp; &nbsp; &nbsp;</p> <p>+994705565655</p> <p><a href=""https://instagram.com/zangazur.hotel.qusar?igshid=MzRlODBiNWFlZA=="">Ətraflı burada</a></p>"
1771,Breezy Coffee,5,Kofe,1664,Bakı,1644,"Bakı şəhəri, Yasamal rayonu,Süleyman Rəhimov 50 B",+994773121995,https://instagram.com/breezy.coffeeshop?igshid=MzRlODBiNWFlZA==,https://api.xalqbank.az/resized/fit52x52/center/temp/processing/breezy-coffe.png,"<p>Bakı şəhəri, Yasamal rayonu,Süleyman Rəhimov 50 B</p> <p>Tel: +994773121995</p> <p><a href=""https://instagram.com/breezy.coffeeshop?igshid=MzRlODBiNWFlZA=="">Ətraflı burada</a></p>"
1775,Qədimi Ev Ailəvi İstirahət Mərkəzi,5,,,Bakı,1644,"Bakı şəhəri, Sabayıl rayonu, İçəri Şəhər, Kiçik Qala küç 7",+994124372701; +994702228500; +994706230017,https://www.instagram.com/qedimiev_restaurant/,https://api.xalqbank.az/resized/fit52x52/center/temp/processing/qedimi-ev.png,"<p>Bakı şəhəri, Sabayıl rayonu, İçəri Şəhər, Kiçik Qala küç 7</p> <p>Tel: +994124372701<br /> +994702228500<br /> +994706230017</p> <p><a href=""https://www.instagram.com/qedimiev_restaurant/"">Ətraflı burada</a></p>"
1776,MM Geyim Mağazası,10,,,,,Tovuz rayonu Qovlar şəhəri Vağzal ev 0 m 0,+994506742882; +994504829242,https://instagram.com/mm.tovuz?igshid=ZDc4ODBmNjlmNQ==,https://api.xalqbank.az/resized/fit52x52/center/temp/processing/mm-geyim-magazasi.png,"<p>Tovuz rayonu Qovlar şəhəri Vağzal ev 0 m 0</p> <p>Tel: +994506742882</p> <p>+994504829242</p> <p><a href=""https://instagram.com/mm.tovuz?igshid=ZDc4ODBmNjlmNQ=="">Ətraflı burada</a></p>"
1795,Dərya Restaurant İsmayıllı,5,,,,,"İsmayıllı rayonu,&nbsp;Aşıqbayramlı gölü",+994552191921; +994515803339,https://www.instagram.com/derya_restaurant_ismayilli/,https://api.xalqbank.az/resized/fit52x52/center/temp/processing/derya-900px.jpg,"<p>İsmayıllı rayonu,&nbsp;Aşıqbayramlı gölü</p> <p>Tel: +994552191921&nbsp; +994515803339</p> <p><a href=""https://www.instagram.com/derya_restaurant_ismayilli/"">Ətraflı burada</a></p>"
1803,Tulpan Hotel,5,Turizm və hotellər,1660,Şəki,2195,"Şəki şəhəri, Bəxtiyar Vahabzadə küç., 125",+994512993388,https://www.instagram.com/tulpanhotel/,https://api.xalqbank.az/resized/fit52x52/center/temp/processing/tulpan-logo-90x90px-002.jpg,"<p>Şəki şəhəri, Bəxtiyar Vahabzadə küç., 125</p> <p>Tel: +994512993388</p> <p><a href=""https://www.instagram.com/tulpanhotel/"">Ətraflı burada</a></p>"
1805,Canada Shop,5,Geyim və aksesuarlar,1649,Bakı,1644,"Bakı şəhəri, Nizami küç.,&nbsp;60, Nərgiz Mall",,https://www.instagram.com/canadashop_in_baku/,https://api.xalqbank.az/resized/fit52x52/center/temp/processing/canada-shop-baku-90x90px-002.jpg,"<p>Bakı şəhəri, Nizami küç.,&nbsp;60, Nərgiz Mall</p> <p>Tel: +14039180585</p> <p><a href=""https://www.instagram.com/canadashop_in_baku/"">Ətraflı burada</a></p>"
1806,Brend Shop Qazax,3,Geyim və aksesuarlar,1649,,,"Qazax şəh., Əliağa Şıxlinski küçəsi",+994773777725,https://www.instagram.com/brend_shop_qazax/,https://api.xalqbank.az/resized/fit52x52/center/temp/processing/brend-shop-qazax-logo-90x90px-002.jpg,"<p>Qazax şəh., Əliağa Şıxlinski küçəsi</p> <p>Tel: +994773777725</p> <p><a href=""https://www.instagram.com/brend_shop_qazax/"">Ətraflı burada</a></p>"
1809,Nal Baku,5,Kafe və restoran,1650,Bakı,1644,"Bakı şəh., Yasamal rayonu, Mikayıl Müşfiq küç., 77 A",+994552736705,https://www.instagram.com/nalbaku.lounge/,https://api.xalqbank.az/resized/fit52x52/center/temp/processing/nail-900px.jpg,"<p>Bakı şəh., Yasamal rayonu, Mikayıl Müşfiq küç., 77 A</p> <p>Tel: +994552736705</p> <p><a href=""https://www.instagram.com/nalbaku.lounge/"">Ətraflı burada</a></p>"
1829,Yeddi gözəl restoranı,5,Kafe və restoran,1650,,,"Qəbələ şəhəri, Vəndam q,",+994503908811,https://www.instagram.com/7_gozel_shelale/,https://api.xalqbank.az/resized/fit52x52/center/temp/processing/7-gozel-logo.jpg,"<p>Qəbələ şəhəri, Vəndam q,</p> <p>Tel: +994503908811</p> <p><a href=""https://www.instagram.com/7_gozel_shelale/"">Ətraflı burada</a></p>"
1831,Deluxe City Hotel,5,Turizm və hotellər,1660,Bakı,1644,"Bakı şəhəri,Nəsimi rayonu, Rixard Zorge küç. 5A",+994554040049,https://www.instagram.com/deluxecityhotel/,https://api.xalqbank.az/resized/fit52x52/center/temp/processing/deluxe-city-hotel-logo.jpg,"<p>Bakı şəhəri,Nəsimi rayonu, Rixard Zorge küç. 5A</p> <p>Tel: +994554040049</p> <p><a href=""https://www.instagram.com/deluxecityhotel/"">Ətraflı burada</a></p>"
1857,Medial Dental,5,Səhiyyə xidməti və aptek,1662,Bakı,1644,"Город Баку, выход Насиминского метро",+994509771114,https://www.instagram.com/medialdental/,https://api.xalqbank.az/resized/fit52x52/center/temp/processing/medial-dental-logo-90.jpg,"<p>Город Баку, выход Насиминского метро</p> <p>Tel: +994509771114</p> <p><a href=""https://www.instagram.com/medialdental/"">Ətraflı burada</a></p>"
1858,Team Store,10,Geyim və aksesuarlar,1649,Bakı,1644,"Bakı şəhəri, Nərimanov rayonu, Atatürk 2A",+994772820707,https://www.instagram.com/teamstoreaz_/,https://api.xalqbank.az/resized/fit52x52/center/temp/processing/teamstore-profile-picture-90.jpg,"<p>Bakı şəhəri, Nərimanov rayonu, Atatürk 2A</p> <p>Tel: +994772820707</p> <p><a href=""https://www.instagram.com/teamstoreaz_/"">Ətraflı burada</a></p>"
1859,Suissemed MMC,5,Səhiyyə xidməti və aptek,1662,Bakı,1644,"Bakı şəhəri,Nərimanov rayonu, Ceyhun Hacıbəyli 71",+994507008474,https://www.instagram.com/suissemed.az/,https://api.xalqbank.az/resized/fit52x52/center/temp/processing/suissemed-profile-picture-90.jpg,"<p>Bakı şəhəri,Nərimanov rayonu, Ceyhun Hacıbəyli 71</p> <p>Tel: +994507008474</p> <p><a href=""https://www.instagram.com/suissemed.az/"">Ətraflı burada</a></p>"
1860,Dəniz Kitab evi,5,Təhsil və kitab mağazaları,1654,,,"Qazax rayonu, Qazax şəhəri",+994554345990,https://www.instagram.com/deniz_kitab_evi/,https://api.xalqbank.az/resized/fit52x52/center/temp/processing/deniz-kitab-evi-logo-90.jpg,"<p>Qazax rayonu, Qazax şəhəri</p> <p>Tel: +994554345990</p> <p><a href=""https://www.instagram.com/deniz_kitab_evi/"">Ətraflı burada</a></p>"
1861,Mərcimək restoranı,6,Kafe və restoran,1650,Bakı,1644,"Bakı şəhəri, Elmlər Akademiyası m/s çıxışı",+994553587878,https://www.instagram.com/mercimek.az/,https://api.xalqbank.az/resized/fit52x52/center/temp/processing/mercimek-profile-picture-90.jpg,"<p>Bakı şəhəri, Elmlər Akademiyası m/s çıxışı</p> <p>Tel: +994553587878</p> <p><a href=""https://www.instagram.com/mercimek.az/"">Ətraflı burada</a></p>"
1862,Book Zone kitab evi,5,Təhsil və kitab mağazaları,1654,Bakı,1644,"Bakı şəhəri, Nəsimi rayonu, Mirzəağa Əliyev 245",+994703202045,https://www.instagram.com/bookzone.az/,https://api.xalqbank.az/resized/fit52x52/center/temp/processing/bookzone-logo-90.jpg,"<p>Bakı şəhəri, Nəsimi rayonu, Mirzəağa Əliyev 245</p> <p>Tel: +994703202045</p> <p><a href=""https://www.instagram.com/bookzone.az/"">Ətraflı burada</a></p>"
1896,Orman Restoranı,5,Kafe və restoran,1650,Bakı,1644,Tofiq Bəhramov stadionunun yanı,+994502108136,https://www.instagram.com/orman.kend.qebele,https://api.xalqbank.az/resized/fit52x52/center/temp/processing/orman-restoran-logo.jpg,"<p>Tofiq Bəhramov stadionunun yanı</p> <p>Tel: +994502108136</p> <p><a href=""https://www.instagram.com/orman.kend.qebele"">Ətraflı burada</a></p>"
1897,Mehrimah Hotel,5,Turizm və hotellər,1660,Bakı,1644,Qazax şəhəri,,,https://api.xalqbank.az/resized/fit52x52/center/temp/processing/mehrimah-hotel.jpg,<p>Qazax şəhəri</p> <p>&nbsp;</p> <p>&nbsp;</p>
1898,Magic Touch Spa Center MMC,10,Gözəllik və sağlamlıq,1651,Bakı,1644,"Xətai rayonu, Natiq Əliyev küç.3 E",+994503921915,https://www.instagram.com/magictouchbaku/,https://api.xalqbank.az/resized/fit52x52/center/temp/processing/magic-touch-spa-logo.jpg,"<p>Xətai rayonu, Natiq Əliyev küç.3 E</p> <p>Tel: +994503921915</p> <p><a href=""https://www.instagram.com/magictouchbaku/"">Ətraflı burada</a></p>"
1900,Mediland Hospital,5,Səhiyyə xidməti və aptek,1662,Bakı,1644,"Xətai rayonu, Sabit Orucov 17 C",,https://www.instagram.com/medilandhospital/,https://api.xalqbank.az/resized/fit52x52/center/temp/processing/mediland-logo.jpg,"<p>Xətai rayonu, Sabit Orucov 17 C</p> <p>Tel: *0303</p> <p><a href=""https://www.instagram.com/medilandhospital/"">Ətraflı burada</a></p>"
1903,Asian Street Food,5,Kafe və restoran,1650,Bakı,1644,"Əbdülkərim Əlizadə, Bakı",+994708500004,https://www.instagram.com/asian_street_food_baku/,https://api.xalqbank.az/resized/fit52x52/center/temp/processing/asian-street-food-150.jpg,"<p>Əbdülkərim Əlizadə, Bakı</p> <p>Tel: +994708500004</p> <p><a href=""https://www.instagram.com/asian_street_food_baku/"">Ətraflı burada</a></p>"
1904,Abu Ali Restoran,10,Kafe və restoran,1650,Bakı,1644,"Mərdanov qardaşları kücəsi, ev.18",+994513447724,https://www.instagram.com/abuali.restoran/,https://api.xalqbank.az/resized/fit52x52/center/temp/processing/abu-ali-restoran-logo.jpg,"<p>Mərdanov qardaşları kücəsi, ev.18</p> <p>Tel: +994513447724</p> <p><a href=""https://www.instagram.com/abuali.restoran/"">Ətraflı burada</a></p>"
1906,Kapadokya Gəncə,5,Kafe və restoran,1650,,,"Gəncə şəhəri,Həsən Əliyev küçəsi 45&nbsp;",+994507835959,https://www.instagram.com/kapadokya.gence/,https://api.xalqbank.az/resized/fit52x52/center/temp/processing/kapadokiya-gence-logo.jpg,"<p>Gəncə şəhəri,Həsən Əliyev küçəsi 45&nbsp;</p> <p>Tel: +994507835959</p> <p><a href=""https://www.instagram.com/kapadokya.gence/"">Ətraflı burada</a></p>"
1908,A-Level GlobaL,5,Təhsil və kitab mağazaları,1654,Bakı,1644,Jalə Plaza 2-ci mərtəbə,+994702359195,https://www.instagram.com/aleveledu/,https://api.xalqbank.az/resized/fit52x52/center/temp/processing/a-level-logo.jpg,"<p>Jalə Plaza 2-ci mərtəbə</p> <p>Tel: +994702359195</p> <p><a href=""https://www.instagram.com/aleveledu/"">Ətraflı burada</a></p>"
1911,Sweet Way  Café,10,,,,,Qala Ticarət mərkəzi 12,+994507110919,https://www.instagram.com/sweetway.az/,https://api.xalqbank.az/resized/fit52x52/center/temp/processing/svveet-vay-logo.jpg,"<p>Qala Ticarət mərkəzi 12</p> <p>Tel: +994507110919</p> <p><a href=""https://www.instagram.com/sweetway.az/"">Ətraflı burada</a></p>"
1912,Qala Restoran,5,,,,,"Şəmkir rayonu, Yeni Həyat kəndi&nbsp;",+994503105711; +994554443111,https://www.instagram.com/qala_ailevi_istirahet_merkez/,https://api.xalqbank.az/resized/fit52x52/center/temp/processing/qala-restorani.jpg,"<p>Şəmkir rayonu, Yeni Həyat kəndi&nbsp;</p> <p>Tel: +994503105711&nbsp; &nbsp;+994554443111</p> <p><a href=""https://www.instagram.com/qala_ailevi_istirahet_merkez/"">Ətraflı burada</a></p>"
1914,By ZuZU,5,,,,,Qara Qarayev Tofiq Abbasov,+994555611611,https://www.instagram.com/byzuzu.az/,https://api.xalqbank.az/resized/fit52x52/center/temp/processing/by-zuzu-logo.jpg,"<p>Qara Qarayev Tofiq Abbasov</p> <p>Tel: +994555611611</p> <p><a href=""https://www.instagram.com/byzuzu.az/"">Ətraflı burada</a></p>"
1915,Coffee Tree,3,,,,,Sumqayıt şəhəri Polad Həşimov küçəsi 2/33,+994505550995,https://www.instagram.com/coffeetree.az/,https://api.xalqbank.az/resized/fit52x52/center/temp/processing/coffee-tree.jpg,"<p>Sumqayıt şəhəri Polad Həşimov küçəsi 2/33</p> <p>Tel: +994505550995</p> <p><a href=""https://www.instagram.com/coffeetree.az/"">Ətraflı burada</a></p>"
1916,Zoo Mafia,4,,,,,"Xətai rayonu, Məzahir Rüstəmov küçəsi",+994105144566,https://www.instagram.com/zoomafia_ahmadli/,https://api.xalqbank.az/resized/fit52x52/center/temp/processing/zoo-mafia-logo.jpg,"<p>Xətai rayonu, Məzahir Rüstəmov küçəsi</p> <p>Tel: +994105144566</p> <p><a href=""https://www.instagram.com/zoomafia_ahmadli/"">Ətraflı burada</a></p>"
1917,Brand Med,10,,,,,"&nbsp;Bakı şəhəri, Xan Şuşinski - 17",+994772174147,https://www.instagram.com/brandmed_ortopedi/,https://api.xalqbank.az/resized/fit52x52/center/temp/processing/brand-med-logo.jpg,"<p>&nbsp;Bakı şəhəri, Xan Şuşinski - 17</p> <p>Tel: +994772174147</p> <p><a href=""https://www.instagram.com/brandmed_ortopedi/"">Ətraflı burada</a></p>"
1918,Passage Spa,10,,,,,"İçərişəhər, Mərkəzi Univermaqla üz-üzə.",+994554040053,https://www.instagram.com/passagespabaku/,https://api.xalqbank.az/resized/fit52x52/center/temp/processing/passage-spa-logo.jpg,"<p>İçərişəhər, Mərkəzi Univermaqla üz-üzə.</p> <p>Tel: +994554040053</p> <p><a href=""https://www.instagram.com/passagespabaku/"">Ətraflı burada</a></p>"
1928,Cupaway,10,Kofe,1664,,,"Sumqayıt şəhəri, Mərkəz&nbsp; plaza. Sülh küçəsi 32ci məh",+994105102505,https://www.instagram.com/cupaway.az/,https://api.xalqbank.az/resized/fit52x52/center/temp/processing/cup-90x90px.jpg,"<p>Sumqayıt şəhəri, Mərkəz&nbsp; plaza. Sülh küçəsi 32ci məh</p> <p>Tel: +994105102505</p> <p><a href=""https://www.instagram.com/cupaway.az/"">Ətraflı burada</a></p>"
1929,Bakerland,5,Qida və içkilər,1659,,,"Sumqayıt șeher, Azerbaycan pr, 86 C",+9943141417,https://www.instagram.com/bakerland__/,https://api.xalqbank.az/resized/fit52x52/center/temp/processing/bakerland-90x90px.jpg,"<p>Sumqayıt șeher, Azerbaycan pr, 86 C</p> <p>Tel: +9943141417</p> <p><a href=""https://www.instagram.com/bakerland__/"">Ətraflı burada</a></p>"
1933,Cakes by Nina,5,Qida və içkilər,1659,,,Süleyman Vəzirov 22.,+994513303937,https://www.instagram.com/nina_cake_baku/,https://api.xalqbank.az/resized/fit52x52/center/temp/processing/cakes-by-nina-90x90px-002.jpg,"<p>Süleyman Vəzirov 22.</p> <p>Tel: +994513303937</p> <p><a href=""https://www.instagram.com/nina_cake_baku/"">Ətraflı burada</a></p>"
1934,Anadolu Restaurant,5,Kafe və restoran,1650,,,Puşkin küçəsi 5,+994124980102,https://www.instagram.com/bakuanadolurestaurant/,https://api.xalqbank.az/resized/fit52x52/center/temp/processing/anadolu-restaurant-90x90px.jpg,"<p>Puşkin küçəsi 5</p> <p>Tel: +994124980102</p> <p><a href=""https://www.instagram.com/bakuanadolurestaurant/"">Ətraflı burada</a></p>"
1937,Zakura Baku,3,Kafe və restoran,1650,,,,,https://www.instagram.com/zakura.baku/,https://api.xalqbank.az/resized/fit52x52/center/temp/processing/zakura-90x90px.jpg,"<p>Tel: *4004</p> <p><a href=""https://www.instagram.com/zakura.baku/"">Ətraflı burada</a></p>"
1941,Taurus Coffee,5,Kofe,1664,,,İnşaatçılar pr.11A,,https://www.instagram.com/tauruscooffee/,https://api.xalqbank.az/resized/fit52x52/center/temp/processing/taurus-coffee-90x90px.jpg,"<p>İnşaatçılar pr.11A</p> <p><a href=""https://www.instagram.com/tauruscooffee/"">Ətraflı burada</a></p>"
1942,Nadema Boutique,5,Geyim və aksesuarlar,1649,,,"Sumqayıt şəhəri,Sülh küçəsi,30-cu məh",+994556023505,https://www.instagram.com/nadema_butik/,https://api.xalqbank.az/resized/fit52x52/center/temp/processing/nadema-boutique-90x90px.jpg,"<p>Sumqayıt şəhəri,Sülh küçəsi,30-cu məh</p> <p>Tel: +994556023505</p> <p><a href=""https://www.instagram.com/nadema_butik/"">Ətraflı burada</a></p>"
1945,Yurd Hotel,5,Turizm və hotellər,1660,,,"Qax rayonu, İlisu kəndi",+994702504575,https://www.instagram.com/yurdhotelqakh/,https://api.xalqbank.az/resized/fit52x52/center/temp/processing/yurd-hotel-90x90px.jpg,"<p>Qax rayonu, İlisu kəndi</p> <p>Tel: +994702504575</p> <p><a href=""https://www.instagram.com/yurdhotelqakh/"">Ətraflı burada</a></p>"
1946,El Resort,5,Turizm və hotellər,1660,,,"Qax rayonu, İlisu kəndi",+994704455202,https://www.instagram.com/elresortqakhhotel/,https://api.xalqbank.az/resized/fit52x52/center/temp/processing/buta-chai-house-krevoy-150x150px-002.jpg,"<p>Qax rayonu, İlisu kəndi</p> <p>Tel: +994704455202</p> <p><a href=""https://www.instagram.com/elresortqakhhotel/"">Ətraflı burada</a></p>"
1947,Novbahar Restoran,3,Kafe və restoran,1650,,,3A Koroğlu Rəhimov,+994774449907,https://www.instagram.com/novbahar.baku/,https://api.xalqbank.az/resized/fit52x52/center/temp/processing/novbahar-90x90px.jpg,"<p>3A Koroğlu Rəhimov</p> <p>Tel: +994774449907</p> <p><a href=""https://www.instagram.com/novbahar.baku/"">Ətraflı burada</a></p>"
1948,Kotanlı Restaurant,5,Kafe və restoran,1650,,,Azadlıq Prospekti 156,+994707797979,https://www.instagram.com/kotanli_restaurant/,https://api.xalqbank.az/resized/fit52x52/center/temp/processing/kotanli-restorani-90x90px.jpg,"<p>Azadlıq Prospekti 156</p> <p>Tel: +994707797979</p> <p><a href=""https://www.instagram.com/kotanli_restaurant/"">Ətraflı burada</a></p>"
1949,Pancho's Mexican Foods,10,Kafe və restoran,1650,,,154 Lev Tolstoy,+994554467700,https://www.instagram.com/panchos_mexican_food/,https://api.xalqbank.az/resized/fit52x52/center/temp/processing/panchos-90x90px.jpg,"<p>154 Lev Tolstoy</p> <p>Tel: +994554467700</p> <p><a href=""https://www.instagram.com/panchos_mexican_food/"">Ətraflı burada</a></p>"
1950,Legenda Restaurant,5,Kafe və restoran,1650,,,,+994507225396,https://www.instagram.com/legendahall_music/,https://api.xalqbank.az/resized/fit52x52/center/temp/processing/legenda-msuic-hall-logo-90x90px.jpg,"<p>Əhmədli,Telnov 14</p> <p>Tel: +994507225396</p> <p><a href=""https://www.instagram.com/legendahall_music/"">Ətraflı burada</a></p>"
1951,Avrasiya Hospital,5,Səhiyyə xidməti və aptek,1662,,,"Bakı ş, Ak. Həsən Əliyev küç. 15",,https://www.instagram.com/avrasiya_hospital/,https://api.xalqbank.az/resized/fit52x52/center/temp/processing/avrasiya-logo-90x90px.jpg,"<p>Bakı ş, Ak. Həsən Əliyev küç. 15</p> <p>Tel: *1116</p> <p><a href=""https://www.instagram.com/avrasiya_hospital/"">Ətraflı burada</a></p>"
1964,Coffee MİA,10,Kofe,1664,,,Nəsimi rayonu Abbas Səhhət küçəsi 6 A,+994993089400,https://www.instagram.com/coffeemiabaku/,https://api.xalqbank.az/resized/fit52x52/center/temp/processing/coffeemia90x90.jpg,"<p>Nəsimi rayonu Abbas Səhhət küçəsi 6 A</p> <p>Tel: +994993089400</p> <p><a href=""https://www.instagram.com/coffeemiabaku/"">Ətraflı burada</a></p>"
1966,Nefaa Cleaning,15,Digər,1639,,,8-ci mkr Əcəmi Naxçivani 6,+994505558803,https://www.instagram.com/nefaa_clean/,https://api.xalqbank.az/resized/fit52x52/center/temp/processing/nefaa-cleaning90x90.jpg,"<p>8-ci mkr Əcəmi Naxçivani 6</p> <p>Tel: +994505558803</p> <p><a href=""https://www.instagram.com/nefaa_clean/"">Ətraflı burada</a></p>"
1967,Garderob,10,Geyim və aksesuarlar,1649,Şəki,2195,Şəki şəhəri Sabit Rəhman küçəsi,+994557551125,https://www.instagram.com/garderobe_sheki/,https://api.xalqbank.az/resized/fit52x52/center/temp/processing/garderob-sheki90x90.jpg,"<p>Şəki şəhəri Sabit Rəhman küçəsi</p> <p>Tel: +994557551125</p> <p><a href=""https://www.instagram.com/garderobe_sheki/"">Ətraflı burada</a></p>"
1969,American Waffle,5,Kafe və restoran,1650,,,"Xətai rayonu,Blue Mall 2-ci mərtəbə",+994504002024,https://www.instagram.com/americanwafflebaku/,https://api.xalqbank.az/resized/fit52x52/center/temp/processing/american90x90.jpg,"<p>Xətai rayonu,Blue Mall 2-ci mərtəbə</p> <p>Tel: +994504002024</p> <p><a href=""https://www.instagram.com/americanwafflebaku/"">Ətraflı burada</a></p>"
1972,Calipso Restaurant,5,Kafe və restoran,1650,,,"Nəsimi rayonu, Rəşid Behbudov 31A",+994502211242,https://www.instagram.com/calipso_restaurant/,https://api.xalqbank.az/resized/fit52x52/center/temp/processing/calipso-restaurant90x90.jpg,"<p>Nəsimi rayonu, Rəşid Behbudov 31A</p> <p>Tel: +994502211242</p> <p><a href=""https://www.instagram.com/calipso_restaurant/"">Ətraflı burada</a></p>"
2033,Coffeelier Coffee&Coworking,5,Kofe,1664,,,"Ünvan &nbsp;: Azərbaycan prospekti 16, Sumqayıt",+994709033733,https://www.instagram.com/coffeelier.az/,https://api.xalqbank.az/resized/fit52x52/center/temp/processing/coffeelier-150px.png,"<p>Ünvan &nbsp;: Azərbaycan prospekti 16, Sumqayıt</p> <p>Tel: +994709033733</p> <p><a href=""https://www.instagram.com/coffeelier.az/"">Ətraflı burada</a></p>"
2034,AisHa Studio Baku,5,Gözəllik və sağlamlıq,1651,,,Ünvan &nbsp;: Olimpic&nbsp;Starın yanı(Çəmənzəminli Ofis),+994772440444,https://www.instagram.com/aishastudiobaku/,https://api.xalqbank.az/resized/fit52x52/center/temp/processing/aisha-150px.png,"<p>Ünvan &nbsp;: Olimpic&nbsp;Starın yanı(Çəmənzəminli Ofis)</p> <p>Tel: +994772440444</p> <p><a href=""https://www.instagram.com/aishastudiobaku/"">Ətraflı burada</a></p>"
2041,Rivoli Café,10,Kafe və restoran,1650,,,"Ünvan &nbsp;: Bakı şəhəri, Kövkəb Səfərəliyeva 28",+9940506003200,https://www.instagram.com/rivolicafebaku/,https://api.xalqbank.az/resized/fit52x52/center/temp/processing/rivoli-150px-002.jpg,"<p>Ünvan &nbsp;: Bakı şəhəri, Kövkəb Səfərəliyeva 28</p> <p>Tel: +9940506003200</p> <p><a href=""https://www.instagram.com/rivolicafebaku/"">Ətraflı burada</a></p>"
2044,Milli Book Cafe,5,Kafe və restoran,1650,,,"Ünvan &nbsp;: Həmzə Babaşov küç., 5N",+994709239000; +994553555453,https://www.instagram.com/millibookcafe/,https://api.xalqbank.az/resized/fit52x52/center/temp/processing/mbc-150px-terefdash.jpg,"<p>Ünvan &nbsp;: Həmzə Babaşov küç., 5N</p> <p>Ünvan 2:&nbsp;Ceyhun Hacıbəyli küç., 31</p> <p>Tel: +994709239000</p> <p>+994553555453</p> <p><a href=""https://www.instagram.com/millibookcafe/"">Ətraflı burada</a></p>"
2045,Brew Bistro,5,Kafe və restoran,1650,,,"Ünvan &nbsp;: Bakı şəhəri, Kövkəb Səfərəliyeva 28&nbsp;",+9944777247876,https://www.instagram.com/brewbistro/,https://api.xalqbank.az/resized/fit52x52/center/temp/processing/375329414-808290871083545-6190492967068670418-n.png,"<p>Ünvan &nbsp;: Bakı şəhəri, Kövkəb Səfərəliyeva 28&nbsp;</p> <p>Tel:&nbsp;+9944777247876</p> <p><a href=""https://www.instagram.com/brewbistro/"">Ətraflı burada</a></p>"
2062,La Luna Coffee and Bakery,5,,,,,"Bakı şəh., Neftçilər pr., 117,&nbsp; Crescent Mall",+994(50) 999 22 66,https://www.instagram.com/laluna.baku/,https://api.xalqbank.az/resized/fit52x52/center/temp/processing/la-luna.png,"<p><span style=""color:#474747"">Bakı şəh., Neftçilər pr., 117,&nbsp;</span><span style=""color:#4d5156"">Crescent Mall</span></p> <p><span><span><span>Tel.: <span style=""background-color:white""><span style=""color:black"">+994(50) 999 22 66</span></span></span></span></span></p> <p><a href=""https://www.instagram.com/laluna.baku/"">Ətraflı burada</a></p>"
2085,XG book-coffee-meetup,5,,,,,"Bakı şəh., S.Vurğun küç., 36",,https://www.instagram.com/xgclub/,https://api.xalqbank.az/resized/fit52x52/center/temp/processing/xg-150px-terefdash.png,"<p>Bakı şəh., S.Vurğun küç., 36</p> <p>Tel.: +994&nbsp;10&nbsp;212 59 99</p> <p><a href=""https://www.instagram.com/xgclub/"">Ətraflı burada</a></p>"
2086,Coffee Moffie,5,Kafe və restoran,1650,Bakı,1644,"Bakı şəh., İslam Səfərli, 9",+994 50 964 18 80,https://www.instagram.com/coffeemoffie/,https://api.xalqbank.az/resized/fit52x52/center/temp/processing/coffee-moffee-logo-150px-002.jpg,"<p>Bakı şəh., İslam Səfərli, 9</p> <p>Tel.: +994 50 964 18 80</p> <p><a href=""https://www.instagram.com/coffeemoffie/"">Ətraflı burada</a></p> <p>&nbsp;</p>"
2097,AZEROBOT EDUCATİON,10,Təhsil və kitab mağazaları,1654,Bakı,1644,"Bakı şəhəri, &nbsp;Xəqani küç., 59B",+994 51 215 05 21; +994 51 215 05 22,https://www.instagram.com/azerobot.az/,https://api.xalqbank.az/resized/fit52x52/center/temp/processing/azerobot-150px.jpg,"<p>Bakı şəhəri, &nbsp;Xəqani küç., 59B</p> <p>Tel.: +994 51 215 05 21&nbsp; &nbsp; &nbsp;+994 51 215 05 22</p> <p><a href=""https://www.instagram.com/azerobot.az/"">Ətraflı burada</a></p> <p>&nbsp;</p>"
2098,Café Lavin,5,Kofe,1664,,,"Ağ şəhər, 2-ci Yaşıl Ada, 3-cü Şərq küçəsi",+994 51 666 60 05,https://www.instagram.com/cafelavinbaku/,https://api.xalqbank.az/resized/fit52x52/center/temp/processing/cafe-150px.jpg,"<p>Ağ şəhər, 2-ci Yaşıl Ada, 3-cü Şərq küçəsi</p> <p>Tel.: +994 51 666 60 05</p> <p><a href=""https://www.instagram.com/cafelavinbaku/"">Ətraflı burada</a></p> <p>&nbsp;</p>"
2099,Coffee Step,10,Kofe,1664,,,"Globus center, Bakı, Azərbaycan",+994 50 449 04 46,https://www.instagram.com/coffeestep.app/,https://api.xalqbank.az/resized/fit52x52/center/temp/processing/coffeestep-loqo-150px.jpg,"<p>Globus center, Bakı, Azərbaycan</p> <p>Tel.: +994 50 449 04 46</p> <p><a href=""https://www.instagram.com/coffeestep.app/"">Ətraflı burada</a></p> <p>&nbsp;</p>"
2100,AZ Akadem MMC,5,Təhsil və kitab mağazaları,1654,,,"Bakı şəh.,Faiq Yusifov 24A",+994 55 232 90 40; +994 50 339 90 40; +994 12 567 83 74,https://www.instagram.com/tibb_kursu_/,https://api.xalqbank.az/resized/fit52x52/center/temp/processing/az-akadem-150px.jpg,"<p>Bakı şəh.,Faiq Yusifov 24A</p> <p>Bakı şəh., Əliyar Əliyev 26</p> <p>Tel.: +994 55 232 90 40&nbsp; +994 50 339 90 40&nbsp; +994 12 567 83 74</p> <p><a href=""https://www.instagram.com/tibb_kursu_/"">Ətraflı burada</a></p> <p>&nbsp;</p>"
2104,TUT Restoran,10,Kafe və restoran,1650,Bakı,1644,Şirin Mirzəyev və Mehdi Abbasov küç kəsişməsi (Planet Şadlıq sarayının yanı),+994 50 511 50 50,https://www.instagram.com/tut_mulbeery/,https://api.xalqbank.az/resized/fit52x52/center/temp/processing/150-0.jpg,"<p>Şirin Mirzəyev və Mehdi Abbasov küç kəsişməsi (Planet Şadlıq sarayının yanı)</p> <p>Tel.: +994 50 511 50 50</p> <p><a href=""https://www.instagram.com/tut_mulbeery/"">Ətraflı burada</a></p> <p>&nbsp;</p>"
2105,Hayal-Et Restoranı,10,Kafe və restoran,1650,,,"Məmmədəli Şərifli küçəsi, 47, Baku, Azerbaijan",+994 55 409 02 46; +994 55 409 05 78; +994 12 441 06 13,https://www.instagram.com/hayal_et_sadliq_banket_hal/,https://api.xalqbank.az/resized/fit52x52/center/temp/processing/hayal-et-loqo-150-0.jpg,"<p>Məmmədəli Şərifli küçəsi, 47, Baku, Azerbaijan</p> <p>Tel.: +994 55 409 02 46 +994 55 409 05 78&nbsp; &nbsp;+994 12 441 06 13</p> <p><a href=""https://www.instagram.com/hayal_et_sadliq_banket_hal/"">Ətraflı burada</a></p> <p>&nbsp;</p>"
2107,Book Mall,5,Kafe və restoran,1650,,,"Əlövsət Quliyev küçəsi, 128, Bakı şəhəri",+994 50 351 08 15,https://www.instagram.com/bookmall/,https://api.xalqbank.az/resized/fit52x52/center/temp/processing/bookmall-150.png,"<p>Əlövsət Quliyev küçəsi, 128, Bakı şəhəri</p> <p>Tel.: +994 50 351 08 15</p> <p><a href=""https://www.instagram.com/bookmall/"">Ətraflı burada</a></p> <p>&nbsp;</p>"
2109,Lampare Restaurant,5,Kafe və restoran,1650,Bakı,1644,"Salyan şosesi, Şıxov",+994 77 500 00 55,https://www.instagram.com/lampare_restaurant/,https://api.xalqbank.az/resized/fit52x52/center/temp/processing/lampare-r-150-0.jpg,"<p>Salyan şosesi, Şıxov</p> <p>Tel.: +994 77 500 00 55</p> <p><a href=""https://www.instagram.com/lampare_restaurant/"">Ətraflı burada</a></p> <p>&nbsp;</p>"
2110,Tanin Wine and Coffee,7,Kafe və restoran,1650,Bakı,1644,"Yusif Məmmədəliyev 20, Bakı şəhəri",+994 51 515 87 03,https://www.instagram.com/taninwineandcoffee/,https://api.xalqbank.az/resized/fit52x52/center/temp/processing/taninwineandcoffee-150.jpg,"<p>Yusif Məmmədəliyev 20, Bakı şəhəri</p> <p>Tel.: +994 51 515 87 03</p> <p><a href=""https://www.instagram.com/taninwineandcoffee/"">Ətraflı burada</a></p> <p>&nbsp;</p>"
2114,Fıstıq,5,Qida və içkilər,1659,Sumqayıt,2057,"Sumqayıt şəhəri, Yeni Bulvar",+994 10 310 00 89,https://www.instagram.com/fistiq_azerbaijan/,https://api.xalqbank.az/resized/fit52x52/center/temp/processing/fistiq-150.jpg,"<p><span><span><span><span>Sumqayıt şəhəri, Yeni Bulvar</span></span></span></span></p> <p>Tel.: +994 10 310 00 89</p> <p><a href=""https://www.instagram.com/fistiq_azerbaijan/"">Ətraflı burada</a></p> <p>&nbsp;</p>"
2120,Chocolatier Baku,7,Kofe,1664,Bakı,1644,"Bakı şəhəri, Səbail rayonu, H.Z.Tağıyev 10",,https://www.instagram.com/chocolatier.baku/,https://api.xalqbank.az/resized/fit52x52/center/temp/processing/chocolatier-loqo-150.jpg,"<p>Bakı şəhəri, Səbail rayonu, H.Z.Tağıyev 10</p> <p>Telefon: +994 50&nbsp;515 26 66</p> <p><a href=""https://www.instagram.com/chocolatier.baku/"">Ətraflı burada</a></p> <p>&nbsp;</p>"
2122,La Crème Café,5,Kafe və restoran,1650,Bakı,1644,"Bakı şəhəri, Bünyad Sərdarov 14",,https://www.instagram.com/la.creme.cafe/,https://api.xalqbank.az/resized/fit52x52/center/temp/processing/la-creme-loqo-150.jpg,"<p>Bakı şəhəri, Bünyad Sərdarov 14</p> <p>Telefon: +994 55&nbsp;583 69 53</p> <p><a href=""https://www.instagram.com/la.creme.cafe/"">Ətraflı burada</a></p> <p>&nbsp;</p>"
2141,Safrani Restoran,7,Kafe və restoran,1650,Bakı,1644,"Bakı şəhəri, Bakıxanov küçəsi, 29",,https://www.instagram.com/safranibaku/,https://api.xalqbank.az/resized/fit52x52/center/temp/processing/safrani-150.jpg,"<p>Bakı şəhəri, Bakıxanov küçəsi, 29</p> <p>Telefon: +994 50&nbsp;888 29 92</p> <p><a href=""https://www.instagram.com/safranibaku/"">Ətraflı burada</a></p> <p>&nbsp;</p>"
2144,Royacademy,7,Təhsil və kitab mağazaları,1654,Bakı,1644,"Bakı şəh., Gəncə pr.54, Xətai Park&nbsp;Y/K Blok 52A",+994105111248,https://www.instagram.com/royacademy.az/,https://api.xalqbank.az/resized/fit52x52/center/temp/processing/royacademy-loqo-150.jpg,"<p>Bakı şəh., Gəncə pr.54, Xətai Park&nbsp;Y/K Blok 52A</p> <p>Telefon: +994105111248</p> <p><a href=""https://www.instagram.com/royacademy.az/"">Ətraflı burada</a></p> <p>&nbsp;</p>"
2159,SYMPHONY FLOWERS,5,Gül və hədiyyələr,1658,Bakı,1644,"Bakı şəh., Neapol 5",+994502002911,https://www.instagram.com/symphony_flowers_/,https://api.xalqbank.az/resized/fit52x52/center/temp/processing/symphony-loqo-150.jpg,"<p>Bakı şəh., Neapol 5</p> <p>Telefon: +994502002911</p> <p><a href=""https://www.instagram.com/symphony_flowers_/"">Ətraflı burada</a></p> <p>&nbsp;</p>"
2160,Babil Restaurant,5,Kafe və restoran,1650,Bakı,1644,"Bakı şəhəri, Tərlan Əliyarbəyov 11",+994 51 400 00 03,https://www.instagram.com/babilrestaurant.az/,https://api.xalqbank.az/resized/fit52x52/center/temp/processing/babil-150.jpg,"<p><span><span><span>Bakı şəhəri, Tərlan Əliyarbəyov 11</span></span></span></p> <p>Telefon: +994 51 400 00 03</p> <p><a href=""https://www.instagram.com/babilrestaurant.az/"">Ətraflı burada</a></p> <p>&nbsp;</p>"
2174,RZ Flowers,8,Gül və hədiyyələr,1658,Bakı,1644,"Bakı şəhəri, Nəriman Nərimanov r., Ağa Nemətulla 75",+994 70 213 45 25,https://www.instagram.com/rzflowers.az/,https://api.xalqbank.az/resized/fit52x52/center/temp/processing/rz-flowers-150.jpg,"<p>Bakı şəhəri, Nəriman Nərimanov r., Ağa Nemətulla 75</p> <p>Telefon: +994 70 213 45 25</p> <p><a href=""https://www.instagram.com/rzflowers.az/"">Ətraflı burada</a></p> <p>&nbsp;</p>"
2175,Fly Burger,5,Kafe və restoran,1650,Bakı,1644,"Bakı şəhəri, Rəsul Rza 15B",+994 55 464 77 08,https://www.instagram.com/fontanacafe.az/,https://api.xalqbank.az/resized/fit52x52/center/temp/processing/flyburger-150.jpg,"<p>Bakı şəhəri, Rəsul Rza 15B</p> <p>Telefon: <span><span><span>+994 55 464 77 08 </span></span></span></p> <p><a href=""https://www.instagram.com/fontanacafe.az/"">Ətraflı burada</a></p> <p>&nbsp;</p>"
2177,Elux Barbershop,10,Gözəllik və sağlamlıq,1651,Bakı,1644,"Bakı şəhəri, Nəsibbəy Yusifbəyli 82A",+994 70 807 70 78,https://www.instagram.com/elux.barbershop/,https://api.xalqbank.az/resized/fit52x52/center/temp/processing/elux-barbershop-150.jpg,"<p><span><span><span>Bakı şəhəri, Nəsibbəy Yusifbəyli 82A</span></span></span></p> <p>Telefon: +994 70 807 70 78</p> <p><a href=""https://www.instagram.com/elux.barbershop/"">Ətraflı burada</a></p> <p>&nbsp;</p>"
2178,DAD Kamaloğlu,5,Kafe və restoran,1650,Bakı,1644,"Bakı şəhəri, Ağ şəhər, Mərkəzi Bulvar küç.6",+994 99 525 00 03,https://www.instagram.com/dad.kamaloglu/,https://api.xalqbank.az/resized/fit52x52/center/temp/processing/dad-kamaloglu-150.jpg,"<p><span><span><span>Bakı şəhəri, Ağ şəhər, Mərkəzi Bulvar küç.6</span></span></span></p> <p>Telefon: <span><span><span>+994 99 525 00 03 </span></span></span></p> <p><a href=""https://www.instagram.com/dad.kamaloglu/"">Ətraflı burada</a></p> <p>&nbsp;</p>"
2179,In Vogue Beauty Studio,5,Gözəllik və sağlamlıq,1651,Bakı,1644,"Bakı şəhəri, Azadlıq Pr.70",+994 70 441 44 81; +994 55 655 01 11,https://www.instagram.com/invoguebaku/,https://api.xalqbank.az/resized/fit52x52/center/temp/processing/invoguebaku-150.jpg,"<p>Bakı şəhəri, Azadlıq Pr.70</p> <p>Telefon: +994 70 441 44 81&nbsp;&nbsp;&nbsp; +994 55 655 01 11&nbsp;</p> <p><a href=""https://www.instagram.com/invoguebaku/"">Ətraflı burada</a></p> <p>&nbsp;</p>"
2188,Coffee Delight,5,Kofe,1664,Bakı,1644,"Bakı şəhəri, Sabunçu ray., Bakıxanov qəs., Səmədağa Mehmandarov 23",+994 51 749 78 36,https://www.instagram.com/coffeedelightbaku/,https://api.xalqbank.az/resized/fit52x52/center/temp/processing/coffeedelight-150.jpg,"<p><span><span><span>Bakı şəhəri, Sabunçu ray., Bakıxanov qəs., Səmədağa Mehmandarov 23</span></span></span></p> <p>Telefon: +994 51 749 78 36</p> <p><a href=""https://www.instagram.com/coffeedelightbaku/"">Ətraflı burada</a></p> <p>&nbsp;</p>"
2206,Your Sushi,5,Kafe və restoran,1650,Bakı,1644,"Bakı şəh., 169 Azər Əliyev",+994 10 717 43 43,https://www.instagram.com/yoursushi/,https://api.xalqbank.az/resized/fit52x52/center/temp/processing/your-sushi-150.jpg,"<p>Bakı şəh., 169 Azər Əliyev</p> <p>Telefon: +994 10 717 43 43</p> <p><a href=""https://www.instagram.com/yoursushi/"">Ətraflı burada</a></p> <p>&nbsp;</p>"
2207,Porto Pizza,5,Kafe və restoran,1650,Bakı,1644,"Bakı şəh., 13 Bəşir Səfəroğlu küç.",+994 99 755 00 00,https://www.instagram.com/portopizza.az/,https://api.xalqbank.az/resized/fit52x52/center/temp/processing/porto-pizza-150.jpg,"<p><span><span><span>Bakı şəh., 13 Bəşir Səfəroğlu küç.</span></span></span></p> <p>Telefon: +994 99 755 00 00</p> <p><a href=""https://www.instagram.com/portopizza.az/"">Ətraflı burada</a></p> <p>&nbsp;</p>"
2212,The Story Café,4,Kafe və restoran,1650,Bakı,1644,"Bakı şəhəri, Azərbaycan pr.9",+994 50 351 16 43,https://www.instagram.com/thestory.cafe24/,https://api.xalqbank.az/resized/fit52x52/center/temp/processing/the-story-cafe-150.jpg,"<p><span><span><span>Bakı şəhəri, Azərbaycan pr.9</span></span></span></p> <p>Telefon: +994 50 351 16 43</p> <p><a href=""https://www.instagram.com/thestory.cafe24/"">Ətraflı burada</a></p> <p>&nbsp;</p>"
2213,Rose Bomb,10,Gül və hədiyyələr,1658,Bakı,1644,"Bakı şəhəri, Mir Cəlal 65",+994516200966,https://www.instagram.com/rosebomb.az/,https://api.xalqbank.az/resized/fit52x52/center/temp/processing/rose-bomb-150.jpg,"<p>Bakı şəhəri, Mir Cəlal 65</p> <p>Telefon: +994516200966</p> <p><a href=""https://www.instagram.com/rosebomb.az/"">Ətraflı burada</a></p> <p>&nbsp;</p>"
2229,Toliroll Sushi,10,Kafe və restoran,1650,Masallı,2196,"Masallı ray.,Seybətin dairəsi &nbsp;&nbsp;",+994 70 850 05 01,https://www.instagram.com/tolirollsushi/,https://api.xalqbank.az/resized/fit52x52/center/temp/processing/img-0290-150-002.jpg,"<p>Masallı ray.,Seybətin dairəsi &nbsp;&nbsp;</p> <p>Telefon: +994 70 850 05 01</p> <p><a href=""https://www.instagram.com/tolirollsushi/"">Ətraflı burada</a></p> <p>&nbsp;</p>"
2255,Memorial Hospital,7,Səhiyyə xidməti və aptek,1662,Bakı,1644,"Bakı şəhəri, Zaur Nudirəliyev 79 &nbsp;&nbsp;",,https://www.instagram.com/memorialhospital.az/,https://api.xalqbank.az/resized/fit52x52/center/temp/processing/memorial-hospital-photo-150.jpg,"<p>Bakı şəhəri, Zaur Nudirəliyev 79 &nbsp;&nbsp;</p> <p>Telefon: +994 55&nbsp;410 10 50</p> <p><a href=""https://www.instagram.com/memorialhospital.az/"">Ətraflı burada</a></p> <p>&nbsp;</p>"
2274,Re-Taş İnşaat Market,10,Tikinti,2279,Bakı,1644,"Bakı şəhəri, Azadlıq pr. 163",+994 12 562 17 47,https://www.instagram.com/re_tas_insaatmarket?igsh=ZGRsZGZqcjBmeXps,https://api.xalqbank.az/resized/fit52x52/center/temp/processing/retas-150.jpg,"<p>Bakı şəhəri, Azadlıq pr. 163</p> <p>Telefon: +994 12 562 17 47</p> <p><a href=""https://www.instagram.com/re_tas_insaatmarket?igsh=ZGRsZGZqcjBmeXps"">Ətraflı burada</a></p> <p>&nbsp;</p>"
2276,Red Electronics,7,Elektronika və məişət texnikası,1655,İsmayıllı,2189,"İsmayıllı şəhəri, M.F.Axundov küç. 16A",+994 55 489 00 66,https://www.instagram.com/redelectronics.az?igsh=cGQ4emwycXBodGZi,https://api.xalqbank.az/resized/fit52x52/center/temp/processing/red-electronics-logo-150.jpg,"<p>İsmayıllı şəhəri, M.F.Axundov küç. 16A</p> <p>Hacıqabul şəhəri, H.Həmidov küç.5</p> <p>Zaqatala şəhəri, Faiq Əmirov küç.</p> <p>Telefon: +994 55 489 00 66</p> <p><a href=""https://www.instagram.com/redelectronics.az?igsh=cGQ4emwycXBodGZi"">Ətraflı burada</a></p> <p>&nbsp;</p>"
2278,Paus Coffee&Tea House,15,Kofe,1664,Lənkəran,2193,"Lənkəran şəhəri, Qala Xiyabani ev 13",+994 50 864 44 10,https://www.instagram.com/pausbrewing/,https://api.xalqbank.az/resized/fit52x52/center/temp/processing/paus-150.jpg,"<p>Lənkəran şəhəri, Qala Xiyabani ev 13</p> <p>Telefon: +994 50 864 44 10</p> <p><a href=""https://www.instagram.com/pausbrewing/"">Ətraflı burada</a></p> <p>&nbsp;</p>"
2280,Lighthouse Coffeeshop,10,Kofe,1664,Lənkəran,2193,"Lənkəran şəhəri, Həzi Aslanov xiyabanı",+994 99 888 90 80,https://www.instagram.com/lighthouse_coffeeshop/,https://api.xalqbank.az/resized/fit52x52/center/temp/processing/light-150.jpg,"<p>Lənkəran şəhəri, Həzi Aslanov xiyabanı</p> <p>Telefon: +994 99 888 90 80</p> <p><a href=""https://www.instagram.com/lighthouse_coffeeshop/"">Ətraflı burada</a></p> <p>&nbsp;</p>"
2282,MilaBrush Azerbaijan,5,Onlayn xidmətlər,1653,Bakı,1644,Online ticarət platforması,+994 70 222 88 25,https://www.instagram.com/milabrush.az/,https://api.xalqbank.az/resized/fit52x52/center/temp/processing/milabrush-loqo-150.jpg,"<p>Online ticarət platforması</p> <p>Telefon: +994 70 222 88 25</p> <p><a href=""https://www.instagram.com/milabrush.az/"">Ətraflı burada</a></p> <p>&nbsp;</p>"
2292,Cafe De Costa Rica Coffee&Bar,10,Kofe,1664,Bakı,1644,"Bakı şəhəri, 23D Ayna Sultanova",+994 55 324 44 87,https://www.instagram.com/cafe.de.costa.elmler/,https://api.xalqbank.az/resized/fit52x52/center/temp/processing/cafe-de-costa-rica-150.jpg,"<p>Bakı şəhəri, 23D Ayna Sultanova</p> <p>Telefon: +994 55 324 44 87</p> <p><a href=""https://www.instagram.com/cafe.de.costa.elmler/"">Ətraflı burada</a></p> <p>&nbsp;</p>"
2294,Coffeeteam Cake&Chocolate,10,,,Bakı,1644,"Bakı şəhəri, Xətai rayonu, Seyid Əzim Şirvani 51",+994 77 308 08 82,https://www.instagram.com/coffeeteam__baku/,https://api.xalqbank.az/resized/fit52x52/center/temp/processing/coffeeteam-150-0.jpg,"<p>Bakı şəhəri, Xətai rayonu, Seyid Əzim Şirvani 51</p> <p>Telefon: +994 77 308 08 82</p> <p><a href=""https://www.instagram.com/coffeeteam__baku/"">Ətraflı burada</a></p> <p>&nbsp;</p>"
2301,Casa Delizia,10,Kafe və restoran,1650,Bakı,1644,"Bakı şəhəri, Bülbül pr. 35a",+994 77 393 10 00,https://www.instagram.com/casadelizia.az?igsh=amR4YzAxMW5sdzVq,https://api.xalqbank.az/resized/fit52x52/center/temp/processing/casa-delizia-150.jpg,"<p>Bakı şəhəri, Bülbül pr. 35a</p> <p>Telefon: +994 77 393 10 00</p> <p><a href=""https://www.instagram.com/casadelizia.az?igsh=amR4YzAxMW5sdzVq"">Ətraflı burada</a></p> <p>&nbsp;</p>"
2304,Fabrik Coffee,5,Kofe,1664,Bakı,1644,"Bakı şəhəri, Bülbül pr. 35a",+994 50 986 46 51,https://www.instagram.com/fabrikcoffee/,https://api.xalqbank.az/resized/fit52x52/center/temp/processing/fabrik-coffee-150.jpg,"<p>Bakı şəhəri, Bülbül pr. 35a</p> <p>Telefon: +994 50 986 46 51</p> <p><a href=""https://www.instagram.com/fabrikcoffee/"">Ətraflı burada</a></p> <p>&nbsp;</p>"
2311,Zesto Baku,5,Kofe,1664,Bakı,1644,"Bakı şəhəri, Qara Qarayev prospekti, Özbəkistan küçəsi",+994 50 477 04 05,https://www.instagram.com/zestobaku/,https://api.xalqbank.az/resized/fit52x52/center/temp/processing/zesto-150.jpg,"<p>Bakı şəhəri, Qara Qarayev prospekti, Özbəkistan küçəsi</p> <p>Telefon: +994 50 477 04 05</p> <p><a href=""https://www.instagram.com/zestobaku/"">Ətraflı burada</a></p> <p>&nbsp;</p>"
2312,Hill Restaurant,5,Kafe və restoran,1650,Bakı,1644,"Bakı şəhəri, Abbasqulu Abbaszadə 142",+994 50 600 11 51; +994 12 404 41 99,https://www.instagram.com/hill.restaurant/,https://api.xalqbank.az/resized/fit52x52/center/temp/processing/hill-150.jpg,"<p>Bakı şəhəri, Abbasqulu Abbaszadə 142</p> <p>Telefon: +994 50 600 11 51 ; +994 12 404 41 99</p> <p><a href=""https://www.instagram.com/hill.restaurant/"">Ətraflı burada</a></p> <p>&nbsp;</p>"
2314,Art Style Coffee & Restaurant,7,Kofe,1664,Bakı,1644,"Bakı şəh., Atatürk pr. 28 (Pakistan Səfirliyinin yanı)",+994 51 632 57 72,https://www.instagram.com/artstyleitaliya/,https://api.xalqbank.az/resized/fit52x52/center/temp/processing/150.jpg,"<p>Bakı şəh., Atatürk pr. 28 (Pakistan Səfirliyinin yanı)</p> <p>Telefon: +994 51 632 57 72</p> <p><a href=""https://www.instagram.com/artstyleitaliya/"">Ətraflı burada</a></p> <p>&nbsp;</p>"
2318,Aysu Village,5,Turizm və hotellər,1660,Quba,2192,"Quba r., Qələdüz",,https://www.instagram.com/aysuvillage/,https://api.xalqbank.az/resized/fit52x52/center/temp/processing/150aysu.jpg,"<p>Quba r., Qələdüz</p> <p>Telefon: +994 70&nbsp;588 09 09</p> <p><a href=""https://www.instagram.com/aysuvillage/"">Ətraflı burada</a></p> <p>&nbsp;</p>"
2320,CAFEIN Italian snacks & Coffee Bar,10,Kofe,1664,Bakı,1644,"Bakı şəhəri, İslam Səfərli 13",+994 77 752 08 58,https://www.instagram.com/cafeinbaku/,https://api.xalqbank.az/resized/fit52x52/center/temp/processing/cafein-150.jpg,"<p>Bakı şəhəri, İslam Səfərli 13</p> <p>Telefon: +994 77 752 08 58</p> <p><a href=""https://www.instagram.com/cafeinbaku/"">Ətraflı burada</a></p> <p>&nbsp;</p>"
2331,Bolluq Store,5,Qida və içkilər,1659,İsmayıllı,2189,"İsmayıllı ray., Nəriman Nərimanov 45",,,https://api.xalqbank.az/resized/fit52x52/center/temp/processing/bolluq-150.jpg,"<p><span><span><span>İsmayıllı ray., Nəriman Nərimanov 45</span></span></span></p> <p>&nbsp;</p> <p>&nbsp;</p>"
2332,P1oneer,5,Qida və içkilər,1659,Qusar,2191,Qusar ray.,+994773303838,https://www.instagram.com/pioneer.qusar/,https://api.xalqbank.az/resized/fit52x52/center/temp/processing/pioneer-150.jpg,"<p><span><span><span>Qusar ray.</span></span></span></p> <p><span><span><span>Tel: +994773303838</span></span></span></p> <p><a href=""https://www.instagram.com/pioneer.qusar/"">Ətraflı burada</a></p> <p>&nbsp;</p> <p>&nbsp;</p>"
2333,VİP Market,5,Qida və içkilər,1659,,,"Şamaxı ray., S.Mümtaz 74",+994512062151,https://www.instagram.com/vip_market_samaxi/,https://api.xalqbank.az/resized/fit52x52/center/temp/processing/vip-market-150.jpg,"<p><span><span><span>Şamaxı ray., S.Mümtaz 74</span></span></span></p> <p><span><span><span>Tel: +994512062151</span></span></span></p> <p><a href=""https://www.instagram.com/vip_market_samaxi/"">Ətraflı burada</a></p> <p>&nbsp;</p> <p>&nbsp;</p>"
2334,Şəki Store,5,Qida və içkilər,1659,Şəki,2195,"Şəki şəh., Məmmədəmin Rəsulzadə küç.",,https://www.instagram.com/sheki_store_official/,https://api.xalqbank.az/resized/fit52x52/center/temp/processing/seki-store-150.jpg,"<p><span><span><span>Şəki şəh., Məmmədəmin Rəsulzadə küç.</span></span></span></p> <p><a href=""https://www.instagram.com/sheki_store_official/"">Ətraflı burada</a></p> <p>&nbsp;</p> <p>&nbsp;</p>"
2335,Sarıoğulları,5,Qida və içkilər,1659,,,"Neftçala şəh., M.Əsədov küç. 63D",994514400453,https://www.instagram.com/sariogullari_market/,https://api.xalqbank.az/resized/fit52x52/center/temp/processing/sariogullari-150.jpg,"<p>Neftçala şəh., M.Əsədov küç. 63D</p> <p><span><span><span>Tel: +</span></span></span>994514400453</p> <p><a href=""https://www.instagram.com/sariogullari_market/"">Ətraflı burada</a></p> <p>&nbsp;</p> <p>&nbsp;</p>"
2336,Refem,5,Qida və içkilər,1659,Lənkəran,2193,Lənkəran şəh.,994559851607,https://www.instagram.com/refemsupermarket/,https://api.xalqbank.az/resized/fit52x52/center/temp/processing/refem-150.jpg,"<p><span><span><span>Lənkəran şəh.</span></span></span></p> <p><span><span><span>Tel: +</span></span></span>994559851607</p> <p><a href=""https://www.instagram.com/refemsupermarket/"">Ətraflı burada</a></p> <p>&nbsp;</p> <p>&nbsp;</p>"
2338,Gajar Academy,7,Təhsil və kitab mağazaları,1654,Bakı,1644,"Bakı şəhəri, Jalə Plaza, 3-cü mərtəbə",+994 51 957 16 97,https://www.instagram.com/gajar.academy/,https://api.xalqbank.az/resized/fit52x52/center/temp/processing/gajar-profil-150.jpg,"<p>Bakı şəhəri, Jalə Plaza, 3-cü mərtəbə</p> <p><span><span><span>Tel: +994 51 957 16 97</span></span></span></p> <p><a href=""https://www.instagram.com/gajar.academy/"">Ətraflı burada</a></p> <p>&nbsp;</p> <p>&nbsp;</p>"
2386,Aura Market,5,Market,2353,Tovuz,2197,"Tovuz şəh., Aş. Əkpər küç",,,https://api.xalqbank.az/resized/fit52x52/center/temp/processing/aura-150-0.jpg,"<p><span><span><span>Tovuz şəh., Aş. Əkpər küç</span></span></span></p> <p><span><span><span>Tovuz şəh., M.Musayev küç.</span></span></span></p> <p>&nbsp;</p> <p>&nbsp;</p> <p>&nbsp;</p>"
2387,Göyçay Store,5,Market,2353,Göyçay,2393,"Göyçay şəh, Səməd Vurğun küç.",,,https://api.xalqbank.az/resized/fit52x52/center/temp/processing/goychay-store-logo-150.jpg,"<p><span><span><span>Göyçay şəh, Səməd Vurğun küç.</span></span></span></p> <p><span><span><span>Göyçay şəh., Atatürk küç., ev 77</span></span></span></p> <p><span><span><span>Göyçay şəh., Natəvan küç., ev 69</span></span></span></p> <p>&nbsp;</p> <p>&nbsp;</p> <p>&nbsp;</p>"
2388,EUROMARKET,5,Market,2353,Şabran,2194,"Şabran şəh., R.Behbudov küç., ev 46",,,https://api.xalqbank.az/resized/fit52x52/center/temp/processing/euro-150.jpg,"<p><span><span><span>Şabran şəh., R.Behbudov küç., ev 46</span></span></span></p> <p>&nbsp;</p> <p>&nbsp;</p>"
2389,Göyçə Supermarket,5,Market,2353,Qazax,2198,"Qazax şəh., Azadlıq küç.",,,https://api.xalqbank.az/resized/fit52x52/center/temp/processing/goyce-150.jpg,"<p><span><span><span>Qazax şəh., Azadlıq küç.</span></span></span></p> <p>&nbsp;</p> <p>&nbsp;</p>"
2390,HiperStore,5,Market,2353,Quba,2192,"Qubar şəh., T.Əhmədov küç.",,,https://api.xalqbank.az/resized/fit52x52/center/temp/processing/hiper-150.jpg,"<p><span><span><span>Qubar şəh., T.Əhmədov küç.</span></span></span></p> <p>&nbsp;</p> <p>&nbsp;</p>"
2392,Sübhan Store,5,Market,2353,Siyəzən,2394,"Siyəzən şəh., Heydər Əliyev küç.",,,https://api.xalqbank.az/resized/fit52x52/center/temp/processing/150-1.jpg,"<p><span><span><span>Siyəzən şəh., Heydər Əliyev küç.</span></span></span></p> <p>&nbsp;</p> <p>&nbsp;</p>"
2395,BB&Co Studio,15,Gözəllik və sağlamlıq,1651,Bakı,1644,"Bakı şəh., Yasamal ray., İsmayılbəy Qutqaşınlı ev126",+994 70 800 58 38; +994 77 800 58 18,https://www.instagram.com/bbcostudio_/,https://api.xalqbank.az/resized/fit52x52/center/temp/processing/160.jpg,"<p>Bakı şəh., Yasamal ray., İsmayılbəy Qutqaşınlı ev126</p> <p>Telefon:&nbsp;<span><span><span>+994 70 800 58 38; +994 77 800 58 18</span></span></span></p> <p><a href=""https://www.instagram.com/bbcostudio_/"">Ətraflı burada</a> &nbsp;</p>"
2409,Budda Sushi,20,Kafe və restoran,1650,Bakı,1644,"Bakı şəh,Nəsimi ray, Nizami ray ev 135",+994 50 628 28 01,https://www.instagram.com/ buddhasushi.az/,https://api.xalqbank.az/resized/fit52x52/center/temp/processing/150-2.jpg,"<p>Bakı şəh,Nəsimi ray, Nizami ray ev 135</p> <p>Telefon:&nbsp;<span><span><span>+994 50 628 28 01</span></span></span></p> <p><a href=""https://www.instagram.com/ buddhasushi.az/"">Ətraflı burada</a> &nbsp;</p>"
2411,The Kaffe,10,Kafe və restoran,1650,Bakı,1644,"Bakı şəhəri, Səbail rayonu, İstiqlaliyyət küçəsi.45,",+994771710177,https://www.instagram.com/thekaffe.baku/,https://api.xalqbank.az/resized/fit52x52/center/temp/processing/151.jpg,"<p>Bakı şəhəri, Səbail rayonu, İstiqlaliyyət küçəsi.45,</p> <p>Telefon:&nbsp;+994771710177</p> <p><a href=""https://www.instagram.com/thekaffe.baku/"">Ətraflı burada</a> &nbsp;</p>"
2413,Affagato restoran,5,Kafe və restoran,1650,Bakı,1644,"Bakı şəhəri, Nəsimi rayonu, Nizami küçəsi 103",994553732222,https://www.instagram.com/affogatocoffeebaku/#,https://api.xalqbank.az/resized/fit52x52/center/temp/processing/152.jpg,"<p>Bakı şəhəri, Nəsimi rayonu, Nizami küçəsi 103</p> <p>Telefon:&nbsp;<span><span>+</span></span><span><span><span style=""color:black"">994553732222</span></span></span></p> <p><a href=""https://www.instagram.com/affogatocoffeebaku/#"">Ətraflı burada</a> &nbsp;</p>"
2423,Kaffa Coffee,10,Kafe və restoran,1650,Sumqayıt,2057,"Ünvan:&nbsp;Sumqayıt şəhəri, 5-ci məhəllə, Azərbaycan pr. 4",+994556722192,https://www.instagram.com/kaffacupcoffee/,https://api.xalqbank.az/resized/fit52x52/center/temp/processing/kaffa-coffee-0.jpg,"<p>Ünvan:&nbsp;Sumqayıt şəhəri, 5-ci məhəllə, Azərbaycan pr. 4</p> <p>Tel.:&nbsp;+994556722192</p> <p><a href=""https://www.instagram.com/kaffacupcoffee/"">Ətraflı burada</a></p>"
2424,Mamma Cake & Eclair House,5,Kafe və restoran,1650,Bakı,1644,"Bakı şəh, Nərimanov ray, Ağa Nemətulla küç. və Heydər Əliyev prospektinin kəsişməsi pr.89",+994555144605; +994125144605,https://www.instagram.com/mamma.az/,https://api.xalqbank.az/resized/fit52x52/center/temp/processing/mamma-90.jpg,"<p>Bakı şəh, Nərimanov ray, Ağa Nemətulla küç. və Heydər Əliyev prospektinin kəsişməsi pr.89</p> <p>Tel.: +994555144605; +994125144605</p> <p><a href=""https://www.instagram.com/mamma.az/"">Ətraflı burada</a></p>"
2431,Siesta by Kahkaha,5,Kafe və restoran,1650,Bakı,1644,"Ünvan: Bakı ş, Səbail r, Zeynalabdin Tağıyev ev.8",+994555144605; +994125144605,https://www.instagram.com/siesta_baku/,https://api.xalqbank.az/resized/fit52x52/center/temp/processing/siesta-0.jpg,"<p>Ünvan: Bakı ş, Səbail r, Zeynalabdin Tağıyev ev.8</p> <p>Tel.: +994555144605; +994125144605</p> <p><a href=""https://www.instagram.com/siesta_baku/"">Ətraflı burada</a></p>"
2436,Urfa Ailəvi Restoranı,5,Kafe və restoran,1650,Şirvan,2437,"Ünvan: Şirvan rayonu, Xəqani 20",994505371040; 994555740171,https://www.instagram.com/sirvan.urfa.ailevi.restoran/,https://api.xalqbank.az/resized/fit52x52/center/temp/processing/urfa-ailevi-restoran.jpg,"<p>Ünvan: Şirvan rayonu, Xəqani 20</p> <p>Tel.: <span><span><span>+</span> <span><span style=""color:black"">994505371040&nbsp;&nbsp;</span></span></span></span><span><span><span>+ <span style=""color:black"">994555740171</span></span></span></span></p> <p><a href=""https://www.instagram.com/sirvan.urfa.ailevi.restoran/"">Ətraflı burada</a></p>"
2441,Green Store,7,Qida və içkilər,1659,Cəlilabad,2446,"Ünvan: Cəlilabad rayon, Qurtuluş prospekti",994555768122,https://www.instagram.com/greenstore_015/,https://api.xalqbank.az/resized/fit52x52/center/temp/processing/green-90-0.jpg,"<p>Ünvan: Cəlilabad rayon, Qurtuluş prospekti</p> <p>Tel.: <span><span><span>+</span>994555768122</span></span></p> <p><a href=""https://www.instagram.com/greenstore_015/"">Ətraflı burada</a></p>"
2442,Şimal Store,7,Qida və içkilər,1659,Xaçmaz,2445,"Ünvan: Xaçmaz rayonu, Armudpadar kəndi",994512261923,https://www.instagram.com/shimal_store/,https://api.xalqbank.az/resized/fit52x52/center/temp/processing/simal-90.jpg,"<p>Ünvan: Xaçmaz rayonu, Armudpadar kəndi</p> <p>Tel.: <span><span><span>+</span>994512261923</span></span></p> <p><a href=""https://www.instagram.com/shimal_store/"">Ətraflı burada</a></p>"
2443,Qədiroğlu Market,7,,,Mingəçevir,2447,"Ünvan: Mingəçevir şəhəri, Azərbaycan",99459002001,https://www.instagram.com/qediroglummc/,https://api.xalqbank.az/resized/fit52x52/center/temp/processing/qedir-90.jpg,"<p>Ünvan: Mingəçevir şəhəri, Azərbaycan</p> <p>Tel.: <span><span><span>+</span>99459002001 və *9003&nbsp;</span></span></p> <p><a href=""https://www.instagram.com/qediroglummc/"">Ətraflı burada</a></p>"
2444,ELSTORE,7,Qida və içkilər,1659,Yevlax,2448,"Ünvan: Yevlax şəhəri, Nizami Gəncəvi küçəsi 61A",994554555936,https://www.instagram.com/el_store_yevlax/,,"<p>Ünvan: Yevlax şəhəri, Nizami Gəncəvi küçəsi 61A</p> <p>Tel.: <span><span><span>+</span>994554555936</span></span></p> <p><a href=""https://www.instagram.com/el_store_yevlax/"">Ətraflı burada</a></p>"
2449,Nur Market,7,,,Gəncə,2190,"Ünvan: Gəncə şəhəri,Azərbaycan",994553889912,https://www.instagram.com/nur__market/,https://api.xalqbank.az/resized/fit52x52/center/temp/processing/nur-90.jpg,"<p>Ünvan: Gəncə şəhəri,Azərbaycan</p> <p>Tel.: <span><span><span>+</span>994553889912</span></span></p> <p><a href=""https://www.instagram.com/nur__market/"">Ətraflı burada</a></p>"
2455,San Tortino,5,Kafe və restoran,1650,Bakı,1644,"Ünvan: Bakı şəhəri, Yasamal r, Həsənbəy Zərdabi pr ev 142C",994553889912,https://www.instagram.com/santortino.az/,https://api.xalqbank.az/resized/fit52x52/center/temp/processing/162.jpg,"<p>Ünvan: Bakı şəhəri, Yasamal r, Həsənbəy Zərdabi pr ev 142C</p> <p>Tel.: <span><span><span>+</span>994553889912</span></span></p> <p><a href=""https://www.instagram.com/santortino.az/"">Ətraflı burada</a></p>"
2475,Jasett Coffee,5,,,Sumqayıt,2057,"Ünvan:&nbsp; Sumqayıt şəhəri, Bulvar küçəsi, 67A",994103110818,https://www.instagram.com/jasettcoffee/,https://api.xalqbank.az/resized/fit52x52/center/temp/processing/jasett-150.jpg,"<p>Ünvan:&nbsp;<span><span><span><span style=""color:black"">Sumqayıt şəhəri, Bulvar küçəsi, 67A</span></span></span></span></p> <p>Tel.: <span><span><span>+</span><span><span style=""color:black""> 994103110818</span></span></span></span></p> <p><a href=""https://www.instagram.com/jasettcoffee/"">Ətraflı burada</a></p>"
2477,Cafe Phile,5,Kofe,1664,Sumqayıt,2057,"Ünvan:&nbsp; Sumqayıt şəhəri, Nəriman Nərimanov küçəsi, 13/14",994998300123,https://www.instagram.com/jasettcoffee/,https://api.xalqbank.az/resized/fit52x52/center/temp/processing/167-0.jpg,"<p>Ünvan:&nbsp;<span><span><span><span style=""color:#0c1014"">Sumqayıt şəhəri, Nəriman Nərimanov küçəsi, 13/14</span></span></span></span></p> <p>Tel.: <span><span><span>+</span> <span><span style=""color:black"">994998300123</span></span></span></span></p> <p><a href=""https://www.instagram.com/jasettcoffee/"">Ətraflı burada</a></p>"
2478,Bliss Pilates,5,Gözəllik və sağlamlıq,1651,Bakı,1644,"Ünvan1 :&nbsp;Bakı şəh, Nərimanov rayonu, İzzəddin Həsənoğlu küç. 72 (Nərimanov filialı)",994502070217,https://www.instagram.com/blisspilates_baku/,https://api.xalqbank.az/resized/fit52x52/center/temp/processing/165.jpg,"<p>Ünvan1 :&nbsp;Bakı şəh, Nərimanov rayonu, İzzəddin Həsənoğlu küç. 72 (Nərimanov filialı)</p> <p>Ünvan2 :&nbsp;Bakı şəhəri, Yasamal rayonu, Əhməd Cəmil küç. 43 Renessans Palace (Elmlər filialı)</p> <p>Tel.: + 994502070217</p> <p><a href=""https://www.instagram.com/blisspilates_baku/"">Ətraflı burada</a></p>"
